{"type":"FeatureCollection","features":[{"type":"Feature","properties":{"layer":"county"},"geometry":{"type":"Polygon","coordinates":[[[-122.9,45.257],[-122.9,45.1],[-122.7457,45.1],[-122.7855,45.1276],[-122.7569,45.1728],[-122.7454,45.216],[-122.7519,45.2425],[-122.7848,45.2596],[-122.7849,45.2741],[-122.8346,45.2741],[-122.8499,45.2597],[-122.9,45.257]]]}},{"type":"Feature","properties":{"layer":"county"},"geometry":{"type":"Polygon","coordinates":[[[-122.28,45.4614],[-122.28,45.5],[-122.7438,45.5],[-122.7437,45.4333],[-122.6487,45.4327],[-122.6416,45.4615],[-122.28,45.4614]]]}},{"type":"Feature","properties":{"layer":"county"},"geometry":{"type":"Polygon","coordinates":[[[-122.8679,45.3173],[-122.8681,45.2597],[-122.8499,45.2597],[-122.8346,45.2741],[-122.7849,45.2741],[-122.7848,45.2596],[-122.7519,45.2425],[-122.7454,45.216],[-122.7569,45.1728],[-122.7855,45.1276],[-122.7457,45.1],[-122.28,45.1],[-122.28,45.4614],[-122.6416,45.4615],[-122.6487,45.4327],[-122.7437,45.4333],[-122.7437,45.3321],[-122.8055,45.3318],[-122.8072,45.3463],[-122.8465,45.346],[-122.8465,45.3172],[-122.8679,45.3173]]]}},{"type":"Feature","properties":{"layer":"county"},"geometry":{"type":"Polygon","coordinates":[[[-122.7438,45.5],[-122.9,45.5],[-122.9,45.3174],[-122.8679,45.3173],[-122.8465,45.3172],[-122.8465,45.346],[-122.8072,45.3463],[-122.8055,45.3318],[-122.7437,45.3321],[-122.7437,45.4333],[-122.7438,45.5]]]}},{"type":"Feature","properties":{"layer":"county"},"geometry":{"type":"Polygon","coordinates":[[[-122.9,45.3174],[-122.9,45.257],[-122.8499,45.2597],[-122.8681,45.2597],[-122.8679,45.3173],[-122.9,45.3174]]]}},{"type":"Feature","properties":{"layer":"road","name":"SW Capitol Hwy-Barbur Blvd Rmp"},"geometry":{"type":"LineString","coordinates":[[-122.6802,45.4803],[-122.6804,45.4819]]}},{"type":"Feature","properties":{"layer":"road","name":"State Hwy 99 E"},"geometry":{"type":"MultiLineString","coordinates":[[[-122.824,45.1595],[-122.8305,45.1521],[-122.8313,45.1513],[-122.8329,45.1494],[-122.8311,45.1513],[-122.8305,45.1521]],[[-122.7501,45.2336],[-122.7545,45.2324],[-122.7554,45.2317],[-122.757,45.2292],[-122.7586,45.2238],[-122.7601,45.2216],[-122.7638,45.2177],[-122.7671,45.215],[-122.7765,45.2056],[-122.7793,45.2039],[-122.785,45.1985],[-122.78,45.2021],[-122.7765,45.2056]],[[-122.8963,45.1],[-122.8809,45.1104],[-122.8719,45.1142],[-122.865,45.1171],[-122.8586,45.1208],[-122.8451,45.1357],[-122.8439,45.137],[-122.8329,45.1494]],[[-122.704,45.2564],[-122.7092,45.2551]],[[-122.8234,45.1601],[-122.8214,45.1624],[-122.8208,45.1631],[-122.8066,45.1795],[-122.7986,45.1879],[-122.7923,45.1931],[-122.785,45.1985]]]}},{"type":"Feature","properties":{"layer":"road","name":"Pacific Hwy E"},"geometry":{"type":"LineString","coordinates":[[-122.865,45.1171],[-122.8719,45.1142]]}},{"type":"Feature","properties":{"layer":"road","name":"Wilco Hwy NE"},"geometry":{"type":"MultiLineString","coordinates":[[[-122.7869,45.1119],[-122.7845,45.1068],[-122.7845,45.1]],[[-122.832,45.1312],[-122.8311,45.1305],[-122.8196,45.126],[-122.8167,45.1257],[-122.8059,45.1257],[-122.8047,45.1218],[-122.7881,45.1129]]]}},{"type":"Feature","properties":{"layer":"road","name":"Woodburn-Estacada Hwy NE"},"geometry":{"type":"LineString","coordinates":[[-122.7803,45.1476],[-122.786,45.1483],[-122.7975,45.1514],[-122.7999,45.1517],[-122.8052,45.1512],[-122.822,45.1512],[-122.823,45.1512],[-122.8311,45.1513],[-122.8312,45.1513]]}},{"type":"Feature","properties":{"layer":"road","name":"Hubbard Cutoff Rd NE"},"geometry":{"type":"LineString","coordinates":[[-122.78,45.2027],[-122.7793,45.2039],[-122.7781,45.2104],[-122.7711,45.2504],[-122.7694,45.2596]]}},{"type":"Feature","properties":{"layer":"road","name":"Hwy 99E NE"},"geometry":{"type":"LineString","coordinates":[[-122.7545,45.2324],[-122.7554,45.2317]]}},{"type":"Feature","properties":{"layer":"road","name":"Molalla Rd NE"},"geometry":{"type":"MultiLineString","coordinates":[[[-122.822,45.1512],[-122.8052,45.1512],[-122.7999,45.1517]],[[-122.823,45.1512],[-122.8311,45.1513],[-122.8312,45.1513]]]}},{"type":"Feature","properties":{"layer":"road","name":"Hillsboro-Silverton Hwy NE"},"geometry":{"type":"MultiLineString","coordinates":[[[-122.8762,45.151],[-122.8805,45.1511],[-122.8809,45.1511],[-122.8832,45.1511],[-122.8854,45.151],[-122.8832,45.1511]],[[-122.9,45.1561],[-122.8961,45.1546],[-122.8966,45.1512],[-122.8932,45.151],[-122.8854,45.151]]]}},{"type":"Feature","properties":{"layer":"road","name":"Hwy 99 E NE"},"geometry":{"type":"LineString","coordinates":[[-122.8208,45.1631],[-122.8214,45.1624]]}},{"type":"Feature","properties":{"layer":"road","name":"Butteville Rd NE"},"geometry":{"type":"LineString","coordinates":[[-122.8961,45.1546],[-122.8966,45.1512]]}},{"type":"Feature","properties":{"layer":"road","name":"State Hwy 99E NE"},"geometry":{"type":"LineString","coordinates":[[-122.8234,45.1601],[-122.824,45.1595]]}},{"type":"Feature","properties":{"layer":"road","name":"Portland Rd NE"},"geometry":{"type":"LineString","coordinates":[[-122.8963,45.1],[-122.8809,45.1104],[-122.8719,45.1142],[-122.865,45.1171],[-122.8586,45.1208],[-122.8451,45.1357]]}},{"type":"Feature","properties":{"layer":"road","name":"Butteville-Gervais Rd NE"},"geometry":{"type":"LineString","coordinates":[[-122.8961,45.1546],[-122.8966,45.1512]]}},{"type":"Feature","properties":{"layer":"road","name":"N Pacific Hwy"},"geometry":{"type":"MultiLineString","coordinates":[[[-122.8208,45.1631],[-122.8214,45.1624],[-122.8234,45.1601],[-122.824,45.1595],[-122.8305,45.1521],[-122.8313,45.1513],[-122.8329,45.1494],[-122.8311,45.1513],[-122.8305,45.1521]],[[-122.8451,45.1357],[-122.8439,45.137],[-122.8329,45.1494]]]}},{"type":"Feature","properties":{"layer":"road","name":"N State St"},"geometry":{"type":"LineString","coordinates":[[-122.6609,45.4241],[-122.6623,45.4218],[-122.6637,45.4156]]}},{"type":"Feature","properties":{"layer":"road","name":"S Kropf Rd"},"geometry":{"type":"LineString","coordinates":[[-122.6814,45.151],[-122.6813,45.1299]]}},{"type":"Feature","properties":{"layer":"road","name":"S Pacific Hwy"},"geometry":{"type":"LineString","coordinates":[[-122.8451,45.1357],[-122.8586,45.1208],[-122.865,45.1171]]}},{"type":"Feature","properties":{"layer":"road","name":"S Molalla Ave"},"geometry":{"type":"LineString","coordinates":[[-122.5751,45.2571],[-122.5737,45.2593],[-122.5642,45.2908],[-122.563,45.2972],[-122.563,45.3002],[-122.5658,45.3055],[-122.5721,45.3139],[-122.5784,45.3218]]}},{"type":"Feature","properties":{"layer":"road","name":"S State St"},"geometry":{"type":"LineString","coordinates":[[-122.6646,45.4111],[-122.6637,45.4156]]}},{"type":"Feature","properties":{"layer":"road","name":"S McLoughlin Blvd"},"geometry":{"type":"LineString","coordinates":[[-122.6275,45.3457],[-122.6214,45.3472],[-122.6174,45.3491],[-122.6132,45.3527]]}},{"type":"Feature","properties":{"layer":"road","name":"E Portland Hwy"},"geometry":{"type":"MultiLineString","coordinates":[[[-122.5656,45.5],[-122.5655,45.4974],[-122.5663,45.4878],[-122.5656,45.4706],[-122.567,45.4665],[-122.5713,45.4614]],[[-122.5652,45.5],[-122.5652,45.4973],[-122.5659,45.4878],[-122.5651,45.4705],[-122.5667,45.4662],[-122.5708,45.4614]]]}},{"type":"Feature","properties":{"layer":"road","name":"E Portland Fwy"},"geometry":{"type":"MultiLineString","coordinates":[[[-122.5708,45.4614],[-122.5726,45.4568],[-122.5724,45.4524],[-122.5655,45.4324],[-122.5655,45.4293],[-122.5664,45.4276],[-122.5726,45.4202],[-122.5741,45.4176],[-122.5737,45.4151],[-122.5733,45.414],[-122.571,45.4075],[-122.5713,45.4041],[-122.5736,45.3976],[-122.5798,45.3822],[-122.5816,45.3792],[-122.5871,45.3748],[-122.592,45.3712],[-122.5935,45.3691],[-122.5967,45.3667],[-122.6008,45.3653],[-122.6096,45.3629],[-122.6118,45.362],[-122.6173,45.3575],[-122.6255,45.3524],[-122.6296,45.3505],[-122.6356,45.349],[-122.6421,45.3486],[-122.6501,45.3473],[-122.6543,45.3478],[-122.657,45.3488],[-122.6609,45.3514],[-122.6662,45.3579],[-122.6701,45.3614],[-122.6736,45.3635],[-122.6789,45.3654],[-122.6823,45.366],[-122.6905,45.3666],[-122.7037,45.3692],[-122.7117,45.3715],[-122.7168,45.3725],[-122.7255,45.3731],[-122.735,45.3732],[-122.7405,45.3726],[-122.7439,45.3718],[-122.7495,45.3702]],[[-122.7497,45.3706],[-122.7439,45.3722],[-122.7393,45.3733],[-122.7344,45.3737],[-122.7219,45.3735],[-122.718,45.3731],[-122.7102,45.3717],[-122.6992,45.3687],[-122.6917,45.3672],[-122.6808,45.3664],[-122.6754,45.3651],[-122.6725,45.3637],[-122.6677,45.36],[-122.6656,45.358],[-122.6613,45.3525],[-122.6583,45.3501],[-122.6527,45.3478],[-122.6491,45.3477],[-122.6437,45.3487],[-122.6339,45.3495],[-122.6289,45.3511],[-122.6177,45.3575],[-122.6121,45.3621],[-122.6097,45.363],[-122.6008,45.3655],[-122.5973,45.3666],[-122.5947,45.3682],[-122.5923,45.3712],[-122.5872,45.375],[-122.5819,45.3792],[-122.5808,45.3808],[-122.574,45.3978],[-122.5715,45.4048],[-122.5714,45.4075],[-122.574,45.4149],[-122.5744,45.4179],[-122.5728,45.4205],[-122.5668,45.4279],[-122.5661,45.4322],[-122.573,45.4525],[-122.573,45.4574],[-122.5713,45.4614]]]}},{"type":"Feature","properties":{"layer":"road","name":"E Main St"},"geometry":{"type":"LineString","coordinates":[[-122.5639,45.1446],[-122.5771,45.1475]]}},{"type":"Feature","properties":{"layer":"road","name":"E Powell Blvd"},"geometry":{"type":"LineString","coordinates":[[-122.4309,45.4979],[-122.4242,45.4981],[-122.4139,45.4979],[-122.4119,45.4958],[-122.41,45.4945],[-122.4064,45.4939]]}},{"type":"Feature","properties":{"layer":"road","name":"W Powell Blvd"},"geometry":{"type":"LineString","coordinates":[[-122.4821,45.4918],[-122.473,45.4896],[-122.4701,45.4897],[-122.4677,45.4907],[-122.4578,45.4967],[-122.4567,45.497],[-122.4341,45.4972],[-122.4309,45.4979]]}},{"type":"Feature","properties":{"layer":"road","name":"W Main St"},"geometry":{"type":"LineString","coordinates":[[-122.5983,45.1498],[-122.5771,45.1475]]}},{"type":"Feature","properties":{"layer":"road","name":"SE Powell Blvd"},"geometry":{"type":"MultiLineString","coordinates":[[[-122.4064,45.4939],[-122.41,45.4945]],[[-122.6492,45.5],[-122.6446,45.4994],[-122.6402,45.4981],[-122.6305,45.4968],[-122.6189,45.4975],[-122.5787,45.4974],[-122.5655,45.4974],[-122.5652,45.4973],[-122.5583,45.4958],[-122.5421,45.4969],[-122.5409,45.497],[-122.5248,45.4976],[-122.5155,45.4992],[-122.5023,45.4959],[-122.4821,45.4918]],[[-122.4119,45.4958],[-122.4139,45.4979]]]}},{"type":"Feature","properties":{"layer":"road","name":"SE Powell Valley Rd"},"geometry":{"type":"LineString","coordinates":[[-122.41,45.4945],[-122.4119,45.4958]]}},{"type":"Feature","properties":{"layer":"road","name":"SE 8th Ave"},"geometry":{"type":"LineString","coordinates":[[-122.6574,45.494],[-122.6575,45.4942]]}},{"type":"Feature","properties":{"layer":"road","name":"SE Powell Pl"},"geometry":{"type":"LineString","coordinates":[[-122.5409,45.497],[-122.5421,45.4969]]}},{"type":"Feature","properties":{"layer":"road","name":"SE 1st Ave"},"geometry":{"type":"LineString","coordinates":[[-122.6779,45.2679],[-122.6821,45.2661],[-122.6922,45.2623]]}},{"type":"Feature","properties":{"layer":"road","name":"SE McLoughlin Blvd"},"geometry":{"type":"LineString","coordinates":[[-122.609,45.3584],[-122.6035,45.3614],[-122.601,45.364],[-122.6008,45.3653],[-122.6008,45.3655],[-122.6017,45.3756],[-122.6033,45.3787],[-122.6317,45.4157],[-122.6326,45.4178],[-122.6351,45.4326],[-122.6363,45.4344],[-122.64,45.4375],[-122.6415,45.4404],[-122.6428,45.4455],[-122.6425,45.4484],[-122.6423,45.4492],[-122.639,45.4615],[-122.6387,45.4671],[-122.6417,45.4799],[-122.6435,45.4834],[-122.6449,45.4846],[-122.6499,45.4871],[-122.6558,45.4915],[-122.6574,45.494],[-122.6575,45.4942],[-122.6602,45.5]]}},{"type":"Feature","properties":{"layer":"road","name":"SE 82nd Ave"},"geometry":{"type":"MultiLineString","coordinates":[[[-122.5772,45.4241],[-122.5775,45.4253],[-122.5793,45.4318],[-122.5789,45.4473],[-122.579,45.4615],[-122.5791,45.4768],[-122.5787,45.4974],[-122.5787,45.5]],[[-122.5772,45.4247],[-122.5775,45.4253]]]}},{"type":"Feature","properties":{"layer":"road","name":"SE Hwy 212"},"geometry":{"type":"LineString","coordinates":[[-122.3791,45.4286],[-122.3831,45.4272]]}},{"type":"Feature","properties":{"layer":"road","name":"SW Barbur Blvd"},"geometry":{"type":"MultiLineString","coordinates":[[[-122.6778,45.4955],[-122.6769,45.4924],[-122.6774,45.4951]],[[-122.7437,45.4429],[-122.7402,45.4434],[-122.7399,45.4435],[-122.7314,45.4456],[-122.7299,45.4466],[-122.7281,45.45],[-122.7263,45.4515],[-122.7213,45.4535],[-122.7211,45.4536],[-122.7117,45.4575],[-122.6892,45.4705],[-122.6865,45.4711],[-122.6815,45.4713],[-122.6792,45.474],[-122.6802,45.4803],[-122.6802,45.4806],[-122.6804,45.4819],[-122.6825,45.4868],[-122.6816,45.49],[-122.6789,45.4907],[-122.6769,45.4924]]]}},{"type":"Feature","properties":{"layer":"road","name":"SW Canyon Rd"},"geometry":{"type":"LineString","coordinates":[[-122.7537,45.5],[-122.7566,45.4976],[-122.761,45.4985],[-122.7674,45.4979],[-122.7732,45.4948],[-122.7921,45.4907],[-122.7923,45.4907],[-122.7963,45.4897],[-122.8042,45.4884],[-122.8108,45.4883],[-122.8148,45.4884]]}},{"type":"Feature","properties":{"layer":"road","name":"SW Scholls Ferry Rd"},"geometry":{"type":"LineString","coordinates":[[-122.7492,45.4861],[-122.7618,45.4801],[-122.7636,45.4784],[-122.7637,45.4763],[-122.7661,45.4736],[-122.7681,45.4729],[-122.7731,45.4725],[-122.7746,45.4715],[-122.7824,45.4568],[-122.7844,45.4515],[-122.7846,45.4513],[-122.788,45.4481],[-122.7936,45.4458],[-122.8014,45.444],[-122.8105,45.4429],[-122.817,45.4411],[-122.8262,45.4382],[-122.8338,45.4342],[-122.8374,45.4333],[-122.8462,45.4277],[-122.8485,45.4269],[-122.8569,45.4259],[-122.8672,45.4258],[-122.8779,45.4233],[-122.8807,45.4222],[-122.8826,45.4203],[-122.8863,45.4187],[-122.8958,45.4187],[-122.9,45.4192]]}},{"type":"Feature","properties":{"layer":"road","name":"SW Beaverton Tigard Fwy"},"geometry":{"type":"MultiLineString","coordinates":[[[-122.79,45.5],[-122.7911,45.4977],[-122.7923,45.4907],[-122.793,45.4865],[-122.7928,45.4822],[-122.7913,45.4786],[-122.7863,45.4719],[-122.7863,45.4635],[-122.7847,45.4579],[-122.7846,45.4513],[-122.783,45.4471],[-122.7804,45.445],[-122.7693,45.4398],[-122.7654,45.4377],[-122.7619,45.4351],[-122.7546,45.428],[-122.75,45.4252],[-122.7473,45.4223],[-122.7442,45.421],[-122.744,45.4209]],[[-122.7897,45.5],[-122.7908,45.4979],[-122.7921,45.4907],[-122.7928,45.4865],[-122.7928,45.4831],[-122.791,45.4784],[-122.7864,45.4729],[-122.7859,45.4709],[-122.7861,45.4642],[-122.7845,45.4578],[-122.7844,45.4515],[-122.7828,45.4471],[-122.7809,45.4454],[-122.7688,45.4397],[-122.7654,45.4378],[-122.7617,45.4352],[-122.7554,45.4289],[-122.7491,45.4248],[-122.7461,45.4219],[-122.7442,45.4211]]]}},{"type":"Feature","properties":{"layer":"road","name":"SW Macadam Ave"},"geometry":{"type":"LineString","coordinates":[[-122.6679,45.4614],[-122.6701,45.4674],[-122.6712,45.4687],[-122.6715,45.473],[-122.6723,45.478],[-122.6754,45.4857],[-122.6752,45.488],[-122.673,45.4916],[-122.6728,45.4995]]}},{"type":"Feature","properties":{"layer":"road","name":"SW Naito Pkwy"},"geometry":{"type":"MultiLineString","coordinates":[[[-122.6774,45.4951],[-122.6777,45.5]],[[-122.6778,45.4955],[-122.6778,45.5]]]}},{"type":"Feature","properties":{"layer":"road","name":"SW Pacific Hwy"},"geometry":{"type":"MultiLineString","coordinates":[[[-122.7437,45.4429],[-122.7474,45.4419],[-122.757,45.437],[-122.7617,45.4352],[-122.7619,45.4351],[-122.7648,45.4341],[-122.7721,45.4311],[-122.7811,45.425],[-122.7893,45.4166],[-122.7933,45.4126],[-122.7953,45.4077],[-122.798,45.4024],[-122.7987,45.3997],[-122.7993,45.3938],[-122.8011,45.3918],[-122.8115,45.3862],[-122.8318,45.3803],[-122.8341,45.3787],[-122.838,45.374],[-122.8433,45.37],[-122.8527,45.3638],[-122.8661,45.3547],[-122.8691,45.3514],[-122.8778,45.3351],[-122.8833,45.3321],[-122.8868,45.329],[-122.8886,45.3263],[-122.8938,45.3226],[-122.9,45.3201]],[[-122.9,45.32],[-122.8935,45.3225],[-122.8888,45.3257],[-122.8854,45.3294],[-122.8775,45.3351],[-122.8685,45.352],[-122.8659,45.3545],[-122.8568,45.3605],[-122.8431,45.3699],[-122.8363,45.3752],[-122.8337,45.3786],[-122.8303,45.3806],[-122.8113,45.386],[-122.8012,45.3914],[-122.7989,45.3941],[-122.7981,45.4014],[-122.7947,45.408],[-122.7932,45.4121],[-122.7893,45.4166]]]}},{"type":"Feature","properties":{"layer":"road","name":"SW Beaverton-Tualatin Hwy"},"geometry":{"type":"LineString","coordinates":[[-122.7656,45.4187],[-122.7657,45.4259],[-122.7661,45.4283],[-122.7646,45.4297],[-122.7648,45.4341]]}},{"type":"Feature","properties":{"layer":"road","name":"SW Riverside Dr"},"geometry":{"type":"LineString","coordinates":[[-122.6609,45.4241],[-122.6587,45.4268],[-122.6581,45.4288],[-122.655,45.4327],[-122.6537,45.4348],[-122.6528,45.4386],[-122.6566,45.444],[-122.6568,45.4466],[-122.6605,45.4533],[-122.6679,45.4614]]}},{"type":"Feature","properties":{"layer":"road","name":"SW Old Scholls Ferry Rd"},"geometry":{"type":"LineString","coordinates":[[-122.8462,45.4277],[-122.8374,45.4333],[-122.8338,45.4342],[-122.8262,45.4382],[-122.817,45.4411]]}},{"type":"Feature","properties":{"layer":"road","name":"SW Front Ave"},"geometry":{"type":"MultiLineString","coordinates":[[[-122.6778,45.4955],[-122.6778,45.5]],[[-122.6774,45.4951],[-122.6777,45.5]]]}},{"type":"Feature","properties":{"layer":"road","name":"SW Boones Ferry Rd"},"geometry":{"type":"LineString","coordinates":[[-122.772,45.337],[-122.7729,45.3382],[-122.7738,45.3429],[-122.7748,45.3448],[-122.7748,45.3603],[-122.7734,45.3626],[-122.773,45.3677],[-122.7722,45.3699],[-122.7647,45.3788],[-122.7642,45.3843],[-122.7581,45.3852],[-122.7564,45.389]]}},{"type":"Feature","properties":{"layer":"road","name":"SW Tualatin Valley Hwy"},"geometry":{"type":"LineString","coordinates":[[-122.8108,45.4883],[-122.8148,45.4884],[-122.831,45.4901],[-122.8377,45.4916],[-122.8454,45.4916],[-122.8917,45.4964],[-122.9,45.4973]]}},{"type":"Feature","properties":{"layer":"road","name":"SW Hall Blvd"},"geometry":{"type":"LineString","coordinates":[[-122.7847,45.4579],[-122.7845,45.4578],[-122.7824,45.4568],[-122.7789,45.4549],[-122.765,45.4502],[-122.7656,45.4474],[-122.7654,45.4378],[-122.7654,45.4377],[-122.7648,45.4341],[-122.7646,45.4297],[-122.7661,45.4283],[-122.7657,45.4259],[-122.7656,45.4187],[-122.7644,45.415],[-122.7645,45.4043]]}},{"type":"Feature","properties":{"layer":"road","name":"SW 1st Ave"},"geometry":{"type":"LineString","coordinates":[[-122.6922,45.2623],[-122.6985,45.2599],[-122.704,45.2564]]}},{"type":"Feature","properties":{"layer":"road","name":"SW Bertha Blvd"},"geometry":{"type":"LineString","coordinates":[[-122.7006,45.4791],[-122.6994,45.4785]]}},{"type":"Feature","properties":{"layer":"road","name":"SW Beaverton-Hillsdale Hwy"},"geometry":{"type":"LineString","coordinates":[[-122.7991,45.4866],[-122.793,45.4865],[-122.7928,45.4865],[-122.7772,45.4865],[-122.7492,45.4861],[-122.7437,45.4871],[-122.7287,45.4871],[-122.7256,45.486],[-122.7202,45.4855],[-122.7165,45.4845],[-122.7108,45.482],[-122.7077,45.4816],[-122.7006,45.4791],[-122.6994,45.4785],[-122.6971,45.4781]]}},{"type":"Feature","properties":{"layer":"road","name":"SW Elligsen Rd"},"geometry":{"type":"LineString","coordinates":[[-122.7695,45.3361],[-122.7691,45.336]]}},{"type":"Feature","properties":{"layer":"road","name":"SW Capitol Hwy"},"geometry":{"type":"LineString","coordinates":[[-122.6802,45.4803],[-122.6805,45.4802],[-122.6897,45.4801],[-122.6932,45.4788],[-122.6971,45.4781]]}},{"type":"Feature","properties":{"layer":"road","name":"SW Farmington Rd"},"geometry":{"type":"LineString","coordinates":[[-122.804,45.4869],[-122.809,45.4874],[-122.8161,45.4872],[-122.8353,45.4847],[-122.8457,45.4835],[-122.8555,45.4807],[-122.8675,45.4753],[-122.8741,45.4719],[-122.8842,45.4695],[-122.8912,45.4674],[-122.898,45.4627],[-122.9,45.4608]]}},{"type":"Feature","properties":{"layer":"road","name":"SW Upper Boones Ferry Rd"},"geometry":{"type":"LineString","coordinates":[[-122.7564,45.389],[-122.7543,45.4007],[-122.7525,45.4022]]}},{"type":"Feature","properties":{"layer":"road","name":"SW Durham Rd"},"geometry":{"type":"LineString","coordinates":[[-122.7645,45.4043],[-122.7574,45.4043],[-122.7525,45.4022]]}},{"type":"Feature","properties":{"layer":"road","name":"SW Front St"},"geometry":{"type":"LineString","coordinates":[[-122.7991,45.4866],[-122.804,45.4869]]}},{"type":"Feature","properties":{"layer":"road","name":"Pacific Hwy"},"geometry":{"type":"MultiLineString","coordinates":[[[-122.7793,45.2039],[-122.785,45.1985],[-122.78,45.2021],[-122.7765,45.2056],[-122.7671,45.215],[-122.7638,45.2177],[-122.7601,45.2216],[-122.7586,45.2238],[-122.757,45.2292],[-122.7554,45.2317],[-122.7545,45.2324],[-122.7501,45.2336],[-122.7464,45.2346],[-122.7436,45.2364],[-122.7386,45.2382],[-122.736,45.2397],[-122.7317,45.2439],[-122.7191,45.2519],[-122.7167,45.2532],[-122.7092,45.2551],[-122.704,45.2564],[-122.7092,45.2551]],[[-122.7691,45.3319],[-122.7691,45.336],[-122.7684,45.3419],[-122.7676,45.3444],[-122.7593,45.3655],[-122.7551,45.3754],[-122.7445,45.4031],[-122.744,45.4061],[-122.7438,45.4123],[-122.7439,45.4209],[-122.7439,45.421],[-122.744,45.4254],[-122.7441,45.4333],[-122.7437,45.4384],[-122.7399,45.4435],[-122.7369,45.445],[-122.7332,45.4458],[-122.7312,45.447],[-122.7303,45.448],[-122.7278,45.4516],[-122.7263,45.4527],[-122.7243,45.4534],[-122.7213,45.4535],[-122.7181,45.4535],[-122.7154,45.4543],[-122.6994,45.4633],[-122.6949,45.4656],[-122.6925,45.4672],[-122.6901,45.4694],[-122.6872,45.4702],[-122.6808,45.4695],[-122.6792,45.4697],[-122.6781,45.4703],[-122.6773,45.4715],[-122.6773,45.4725],[-122.6787,45.4765],[-122.6788,45.4816],[-122.6791,45.4855],[-122.6785,45.4872],[-122.6746,45.4906],[-122.6735,45.4928],[-122.673,45.5]],[[-122.6646,45.4111],[-122.6637,45.4099],[-122.6601,45.4087],[-122.6597,45.4039],[-122.651,45.396],[-122.6392,45.385],[-122.6363,45.3796],[-122.6311,45.3751],[-122.6281,45.3731],[-122.6198,45.3697],[-122.6115,45.365],[-122.6097,45.363],[-122.6096,45.3629],[-122.6102,45.3596],[-122.609,45.3584],[-122.6104,45.3578],[-122.6097,45.3557],[-122.6132,45.3527],[-122.6174,45.3491],[-122.6214,45.3472],[-122.6275,45.3457],[-122.6483,45.3356],[-122.6527,45.3318],[-122.6566,45.3273],[-122.6581,45.324],[-122.6588,45.3205],[-122.6584,45.3185],[-122.6596,45.3138],[-122.6616,45.3099],[-122.663,45.3058],[-122.662,45.3017],[-122.6573,45.2967],[-122.6555,45.292],[-122.656,45.2882],[-122.6627,45.2829],[-122.6722,45.2725],[-122.6754,45.2694],[-122.6779,45.2679],[-122.6821,45.2661],[-122.6922,45.2623],[-122.6985,45.2599],[-122.704,45.2564]],[[-122.6737,45.5],[-122.6737,45.493],[-122.6755,45.4899],[-122.6788,45.4872],[-122.6792,45.4865],[-122.6793,45.4847],[-122.6789,45.4766],[-122.6776,45.4727],[-122.6776,45.4712],[-122.6798,45.4697],[-122.6849,45.4703],[-122.6875,45.4703],[-122.6903,45.4694],[-122.6943,45.4661],[-122.6994,45.4635],[-122.7043,45.4606],[-122.7158,45.4543],[-122.7211,45.4536],[-122.7234,45.4536],[-122.7256,45.4532],[-122.7274,45.4522],[-122.7284,45.4512],[-122.731,45.4474],[-122.7332,45.446],[-122.738,45.4448],[-122.7402,45.4434],[-122.7437,45.439],[-122.7444,45.437],[-122.7442,45.4211],[-122.7442,45.421],[-122.7441,45.4078],[-122.7447,45.4032],[-122.7535,45.3806],[-122.7678,45.3449],[-122.7694,45.3393],[-122.7695,45.3361],[-122.7696,45.3319]],[[-122.8208,45.1631],[-122.8066,45.1795],[-122.7986,45.1879],[-122.7923,45.1931],[-122.785,45.1985]]]}},{"type":"Feature","properties":{"layer":"road","name":"State Hwy 224"},"geometry":{"type":"MultiLineString","coordinates":[[[-122.28,45.2515],[-122.2828,45.2562],[-122.2857,45.2588],[-122.295,45.2639],[-122.3011,45.2653],[-122.3067,45.2684],[-122.3148,45.27],[-122.319,45.2729],[-122.3219,45.2782],[-122.3259,45.2813],[-122.3314,45.2837],[-122.3316,45.2839],[-122.3335,45.2852],[-122.3386,45.2876],[-122.3414,45.2898],[-122.3426,45.2923],[-122.3451,45.3096],[-122.349,45.3317],[-122.3514,45.3446],[-122.3532,45.3498],[-122.3566,45.3551],[-122.3589,45.3576],[-122.3608,45.3592],[-122.3691,45.3653],[-122.374,45.3704],[-122.3877,45.3808],[-122.3964,45.3861],[-122.4141,45.3909],[-122.4195,45.393],[-122.4214,45.3943],[-122.4243,45.394],[-122.4268,45.393],[-122.4295,45.3928],[-122.4331,45.3911],[-122.4359,45.3904],[-122.439,45.3875],[-122.4428,45.3859],[-122.4467,45.385],[-122.4528,45.3851],[-122.4602,45.3888],[-122.4612,45.3936],[-122.4641,45.396],[-122.4702,45.3977],[-122.4753,45.3974],[-122.4785,45.3959],[-122.4818,45.3954],[-122.4852,45.3968],[-122.49,45.3955],[-122.4916,45.3942],[-122.4974,45.3949],[-122.4991,45.3967],[-122.5013,45.4046],[-122.5057,45.4097],[-122.5225,45.4105],[-122.5256,45.4103],[-122.5338,45.4082],[-122.5377,45.4078],[-122.5401,45.4107],[-122.5448,45.4111],[-122.5495,45.4121],[-122.5556,45.414],[-122.5629,45.4151],[-122.5681,45.4181],[-122.5714,45.4189],[-122.5726,45.4202],[-122.5728,45.4205],[-122.5754,45.4217],[-122.5761,45.4218],[-122.5763,45.4218],[-122.5821,45.4227],[-122.5866,45.4237],[-122.5926,45.4244],[-122.5957,45.4252],[-122.6105,45.4319],[-122.6129,45.4327],[-122.6218,45.4368],[-122.6239,45.4382],[-122.627,45.4419],[-122.6312,45.4445],[-122.633,45.4479],[-122.636,45.4488],[-122.6423,45.4492],[-122.6446,45.45]],[[-122.576,45.4214],[-122.5744,45.4179],[-122.5741,45.4176],[-122.5733,45.414],[-122.571,45.4075],[-122.5577,45.4077],[-122.5377,45.4078]],[[-122.5737,45.4151],[-122.5733,45.414]],[[-122.5763,45.4218],[-122.574,45.4149],[-122.5714,45.4075],[-122.571,45.4075]]]}},{"type":"Feature","properties":{"layer":"road","name":"Woodburn-Estacada Hwy"},"geometry":{"type":"MultiLineString","coordinates":[[[-122.3314,45.2837],[-122.3319,45.2832],[-122.3316,45.2839]],[[-122.7803,45.1476],[-122.7754,45.1469],[-122.7681,45.145],[-122.7638,45.1443],[-122.7265,45.1442],[-122.7241,45.1445],[-122.7057,45.1503],[-122.7033,45.1508],[-122.6845,45.1508],[-122.6814,45.151],[-122.6756,45.1509],[-122.6605,45.1511],[-122.655,45.1498],[-122.6452,45.1489],[-122.6375,45.1504],[-122.6261,45.1501],[-122.6204,45.1494],[-122.6064,45.1507],[-122.5983,45.1498],[-122.5771,45.1475],[-122.5639,45.1446],[-122.558,45.148],[-122.5537,45.1542],[-122.5447,45.1607],[-122.5424,45.1614],[-122.5362,45.1615],[-122.531,45.1626],[-122.5262,45.1666],[-122.5216,45.1718],[-122.5173,45.1709],[-122.5106,45.1664],[-122.5073,45.1633],[-122.4984,45.1582],[-122.4967,45.1582],[-122.4931,45.1598],[-122.4851,45.1663],[-122.4762,45.1692],[-122.4659,45.1699],[-122.4621,45.1699],[-122.4555,45.1706],[-122.447,45.1721],[-122.4318,45.1721],[-122.4277,45.1727],[-122.4245,45.1754],[-122.4214,45.1765],[-122.4159,45.1799],[-122.414,45.1836],[-122.409,45.187],[-122.4064,45.188],[-122.4017,45.1919],[-122.3969,45.1937],[-122.395,45.1959],[-122.3915,45.1976],[-122.3871,45.1987],[-122.3798,45.2035],[-122.3765,45.2048],[-122.3737,45.2066],[-122.3708,45.207],[-122.3679,45.2082],[-122.3651,45.2131],[-122.3639,45.2216],[-122.3622,45.2234],[-122.3545,45.2255],[-122.3517,45.2258],[-122.3423,45.2249],[-122.3387,45.2255],[-122.3345,45.2274],[-122.3287,45.229],[-122.3252,45.2315],[-122.3249,45.2335],[-122.3296,45.2487],[-122.3336,45.2558],[-122.3412,45.2638],[-122.3453,45.2659],[-122.3462,45.2683],[-122.3489,45.271],[-122.3504,45.275],[-122.3504,45.2772],[-122.3492,45.2791],[-122.3457,45.2809],[-122.3336,45.2815],[-122.3319,45.2832]]]}},{"type":"Feature","properties":{"layer":"road","name":"State Hwy 211"},"geometry":{"type":"MultiLineString","coordinates":[[[-122.8313,45.1513],[-122.8312,45.1513],[-122.8311,45.1513],[-122.823,45.1512],[-122.822,45.1512],[-122.8052,45.1512],[-122.7999,45.1517],[-122.7975,45.1514],[-122.786,45.1483],[-122.7803,45.1476],[-122.7754,45.1469],[-122.7681,45.145],[-122.7638,45.1443],[-122.7265,45.1442],[-122.7241,45.1445],[-122.7057,45.1503],[-122.7033,45.1508],[-122.6845,45.1508],[-122.6814,45.151],[-122.6756,45.1509],[-122.6605,45.1511],[-122.655,45.1498],[-122.6452,45.1489],[-122.6375,45.1504],[-122.6261,45.1501],[-122.6204,45.1494],[-122.6064,45.1507],[-122.5983,45.1498],[-122.5771,45.1475],[-122.5639,45.1446],[-122.558,45.148],[-122.5537,45.1542],[-122.5447,45.1607],[-122.5424,45.1614],[-122.5362,45.1615],[-122.531,45.1626],[-122.5262,45.1666],[-122.5216,45.1718],[-122.5173,45.1709],[-122.5106,45.1664],[-122.5073,45.1633],[-122.4984,45.1582],[-122.4967,45.1582],[-122.4931,45.1598],[-122.4851,45.1663],[-122.4762,45.1692],[-122.4659,45.1699],[-122.4621,45.1699],[-122.4555,45.1706],[-122.447,45.1721],[-122.4318,45.1721],[-122.4277,45.1727],[-122.4245,45.1754],[-122.4214,45.1765],[-122.4159,45.1799],[-122.414,45.1836],[-122.409,45.187],[-122.4064,45.188],[-122.4017,45.1919],[-122.3969,45.1937],[-122.395,45.1959],[-122.3915,45.1976],[-122.3871,45.1987],[-122.3798,45.2035],[-122.3765,45.2048],[-122.3737,45.2066],[-122.3708,45.207],[-122.3679,45.2082],[-122.3651,45.2131],[-122.3639,45.2216],[-122.3622,45.2234],[-122.3545,45.2255],[-122.3517,45.2258],[-122.3423,45.2249],[-122.3387,45.2255],[-122.3345,45.2274],[-122.3287,45.229],[-122.3252,45.2315],[-122.3249,45.2335],[-122.3296,45.2487],[-122.3336,45.2558],[-122.3412,45.2638],[-122.3453,45.2659],[-122.3462,45.2683],[-122.3489,45.271],[-122.3504,45.275],[-122.3504,45.2772],[-122.3492,45.2791],[-122.3457,45.2809],[-122.3336,45.2815],[-122.3319,45.2832],[-122.3314,45.2837],[-122.3316,45.2839],[-122.3335,45.2852],[-122.3386,45.2876],[-122.3414,45.2898],[-122.3426,45.2923],[-122.3451,45.3096],[-122.349,45.3317],[-122.3514,45.3446],[-122.3532,45.3498],[-122.3566,45.3551],[-122.3589,45.3576],[-122.3521,45.3605],[-122.3483,45.3644],[-122.3461,45.3651],[-122.338,45.3628],[-122.3366,45.363],[-122.321,45.3743],[-122.3198,45.3749],[-122.3099,45.3754],[-122.303,45.3772],[-122.2966,45.3784],[-122.2865,45.3785],[-122.28,45.3817]],[[-122.3319,45.2832],[-122.3316,45.2839]]]}},{"type":"Feature","properties":{"layer":"road","name":"Cascade Hwy"},"geometry":{"type":"MultiLineString","coordinates":[[[-122.5787,45.5],[-122.5787,45.4974],[-122.5791,45.4768],[-122.579,45.4615],[-122.5789,45.4473],[-122.5793,45.4318],[-122.5775,45.4253],[-122.5772,45.4247],[-122.5761,45.4218],[-122.576,45.4214],[-122.5744,45.4179],[-122.5741,45.4176],[-122.5733,45.414],[-122.571,45.4075],[-122.5713,45.4041],[-122.5736,45.3976],[-122.5798,45.3822],[-122.5816,45.3792],[-122.5871,45.3748],[-122.5858,45.3713],[-122.5851,45.3667],[-122.5843,45.3643],[-122.5815,45.36],[-122.5807,45.3543],[-122.5784,45.3486],[-122.5781,45.3428],[-122.5773,45.3414],[-122.574,45.3387],[-122.5735,45.3357],[-122.5754,45.3313],[-122.5781,45.327],[-122.5789,45.3242],[-122.5784,45.3218],[-122.5721,45.3139],[-122.5658,45.3055],[-122.563,45.3002],[-122.563,45.2972],[-122.5642,45.2908],[-122.5737,45.2593],[-122.5751,45.2571],[-122.5815,45.2537],[-122.5826,45.2523],[-122.5841,45.2477],[-122.5844,45.244],[-122.587,45.2406],[-122.5882,45.2339],[-122.5869,45.2315],[-122.5827,45.2279],[-122.5817,45.225],[-122.5809,45.198],[-122.5854,45.1926],[-122.5891,45.1844],[-122.5956,45.1721],[-122.6064,45.1507],[-122.6106,45.1425],[-122.6122,45.1372],[-122.6134,45.1353],[-122.6219,45.1256],[-122.6275,45.1184],[-122.629,45.117],[-122.6401,45.1084],[-122.6504,45.1]],[[-122.5737,45.4151],[-122.5733,45.414]],[[-122.574,45.4149],[-122.5714,45.4075],[-122.5715,45.4048],[-122.574,45.3978],[-122.5808,45.3808],[-122.5819,45.3792],[-122.5872,45.375],[-122.5871,45.3748]],[[-122.5775,45.4253],[-122.5772,45.4241],[-122.5763,45.4218],[-122.574,45.4149]]]}},{"type":"Feature","properties":{"layer":"road","name":"Mount Hood Hwy"},"geometry":{"type":"MultiLineString","coordinates":[[[-122.4011,45.4894],[-122.399,45.4853],[-122.3968,45.4769],[-122.3951,45.4724],[-122.3924,45.4696],[-122.396,45.4716],[-122.3973,45.4731],[-122.3968,45.4769]],[[-122.28,45.4011],[-122.2985,45.4074],[-122.3048,45.4106],[-122.3368,45.4282],[-122.3437,45.4327],[-122.3721,45.4521],[-122.3758,45.4548],[-122.3818,45.4601],[-122.3741,45.4537],[-122.3434,45.4327],[-122.3368,45.4282]],[[-122.3924,45.4696],[-122.3831,45.4613],[-122.3818,45.4601]]]}},{"type":"Feature","properties":{"layer":"road","name":"Sunrise Expy"},"geometry":{"type":"LineString","coordinates":[[-122.5754,45.4217],[-122.5728,45.4205],[-122.5726,45.4202],[-122.5714,45.4189],[-122.5681,45.4181],[-122.5629,45.4151],[-122.5556,45.414],[-122.5495,45.4121],[-122.5448,45.4111],[-122.5401,45.4107],[-122.5377,45.4078]]}},{"type":"Feature","properties":{"layer":"road","name":"Silverton Rd"},"geometry":{"type":"LineString","coordinates":[[-122.8417,45.1362],[-122.8361,45.1364]]}},{"type":"Feature","properties":{"layer":"road","name":"State Hwy 214"},"geometry":{"type":"MultiLineString","coordinates":[[[-122.7845,45.1],[-122.7845,45.1068],[-122.7869,45.1119],[-122.7881,45.1129],[-122.8047,45.1218],[-122.8059,45.1257],[-122.8167,45.1257],[-122.8196,45.126],[-122.8311,45.1305],[-122.832,45.1312],[-122.8348,45.1354],[-122.8361,45.1364],[-122.8417,45.1362],[-122.8439,45.137],[-122.8329,45.1494],[-122.8313,45.1513],[-122.845,45.1518],[-122.8493,45.1519],[-122.8573,45.1496],[-122.8597,45.1495],[-122.8679,45.1497],[-122.8707,45.1509],[-122.8762,45.151],[-122.8805,45.1511],[-122.8809,45.1511]],[[-122.8329,45.1494],[-122.8311,45.1513],[-122.8312,45.1513],[-122.8313,45.1513]]]}},{"type":"Feature","properties":{"layer":"road","name":"Baldock Fwy"},"geometry":{"type":"MultiLineString","coordinates":[[[-122.673,45.5],[-122.6735,45.4928],[-122.6746,45.4906],[-122.6785,45.4872],[-122.6791,45.4855],[-122.6788,45.4816],[-122.6787,45.4765],[-122.6773,45.4725],[-122.6773,45.4715],[-122.6781,45.4703],[-122.6792,45.4697],[-122.6808,45.4695],[-122.6872,45.4702],[-122.6901,45.4694],[-122.6925,45.4672],[-122.6949,45.4656],[-122.6994,45.4633],[-122.7154,45.4543],[-122.7181,45.4535],[-122.7213,45.4535],[-122.7243,45.4534],[-122.7263,45.4527],[-122.7278,45.4516],[-122.7303,45.448],[-122.7312,45.447],[-122.7332,45.4458],[-122.7369,45.445],[-122.7399,45.4435],[-122.7437,45.4384]],[[-122.7848,45.2619],[-122.7715,45.2779],[-122.7702,45.2799],[-122.7695,45.2832],[-122.7696,45.3317]],[[-122.7848,45.2614],[-122.7708,45.2783],[-122.7693,45.2814],[-122.7691,45.3004],[-122.7691,45.3318]],[[-122.6737,45.5],[-122.6737,45.493],[-122.6755,45.4899],[-122.6788,45.4872],[-122.6792,45.4865],[-122.6793,45.4847],[-122.6789,45.4766],[-122.6776,45.4727],[-122.6776,45.4712],[-122.6798,45.4697],[-122.6849,45.4703],[-122.6875,45.4703],[-122.6903,45.4694],[-122.6943,45.4661],[-122.6994,45.4635],[-122.7043,45.4606],[-122.7158,45.4543],[-122.7211,45.4536],[-122.7234,45.4536],[-122.7256,45.4532],[-122.7274,45.4522],[-122.7284,45.4512],[-122.731,45.4474],[-122.7332,45.446],[-122.738,45.4448],[-122.7402,45.4434],[-122.7437,45.439]]]}},{"type":"Feature","properties":{"layer":"road","name":"I-5"},"geometry":{"type":"MultiLineString","coordinates":[[[-122.673,45.5],[-122.6735,45.4928],[-122.6746,45.4906],[-122.6785,45.4872],[-122.6791,45.4855],[-122.6788,45.4816],[-122.6787,45.4765],[-122.6773,45.4725],[-122.6773,45.4715],[-122.6781,45.4703],[-122.6792,45.4697],[-122.6808,45.4695],[-122.6872,45.4702],[-122.6901,45.4694],[-122.6925,45.4672],[-122.6949,45.4656],[-122.6994,45.4633],[-122.7154,45.4543],[-122.7181,45.4535],[-122.7213,45.4535],[-122.7243,45.4534],[-122.7263,45.4527],[-122.7278,45.4516],[-122.7303,45.448],[-122.7312,45.447],[-122.7332,45.4458],[-122.7369,45.445],[-122.7399,45.4435],[-122.7437,45.4384],[-122.7441,45.4333],[-122.744,45.4254],[-122.7439,45.421],[-122.7439,45.4209],[-122.7438,45.4123],[-122.744,45.4061],[-122.7445,45.4031],[-122.7551,45.3754],[-122.7593,45.3655],[-122.7676,45.3444],[-122.7684,45.3419],[-122.7691,45.336],[-122.7691,45.3319],[-122.7691,45.3318],[-122.7691,45.3004],[-122.7693,45.2814],[-122.7708,45.2783],[-122.7848,45.2614],[-122.7849,45.2613],[-122.8151,45.2247],[-122.8332,45.1989],[-122.8395,45.1913],[-122.8522,45.1788],[-122.8805,45.1511],[-122.9,45.1319]],[[-122.6737,45.5],[-122.6737,45.493],[-122.6755,45.4899],[-122.6788,45.4872],[-122.6792,45.4865],[-122.6793,45.4847],[-122.6789,45.4766],[-122.6776,45.4727],[-122.6776,45.4712],[-122.6798,45.4697],[-122.6849,45.4703],[-122.6875,45.4703],[-122.6903,45.4694],[-122.6943,45.4661],[-122.6994,45.4635],[-122.7043,45.4606],[-122.7158,45.4543],[-122.7211,45.4536],[-122.7234,45.4536],[-122.7256,45.4532],[-122.7274,45.4522],[-122.7284,45.4512],[-122.731,45.4474],[-122.7332,45.446],[-122.738,45.4448],[-122.7402,45.4434],[-122.7437,45.439],[-122.7444,45.437],[-122.7442,45.4211],[-122.7442,45.421],[-122.7441,45.4078],[-122.7447,45.4032],[-122.7535,45.3806],[-122.7678,45.3449],[-122.7694,45.3393],[-122.7695,45.3361],[-122.7696,45.3319],[-122.7696,45.3317],[-122.7695,45.2832],[-122.7702,45.2799],[-122.7715,45.2779],[-122.7848,45.2619],[-122.7849,45.2618],[-122.8074,45.2347],[-122.8159,45.2243],[-122.8349,45.1972],[-122.8422,45.1891],[-122.8809,45.1511],[-122.9,45.1323]]]}},{"type":"Feature","properties":{"layer":"road","name":"State Hwy 99W"},"geometry":{"type":"MultiLineString","coordinates":[[[-122.9,45.3201],[-122.8938,45.3226],[-122.8886,45.3263],[-122.8868,45.329],[-122.8833,45.3321],[-122.8778,45.3351],[-122.8691,45.3514],[-122.8661,45.3547],[-122.8527,45.3638],[-122.8433,45.37],[-122.838,45.374],[-122.8341,45.3787],[-122.8318,45.3803],[-122.8115,45.3862],[-122.8011,45.3918],[-122.7993,45.3938],[-122.7987,45.3997],[-122.798,45.4024],[-122.7953,45.4077],[-122.7933,45.4126],[-122.7893,45.4166],[-122.7932,45.4121],[-122.7947,45.408],[-122.7981,45.4014],[-122.7989,45.3941],[-122.8012,45.3914],[-122.8113,45.386],[-122.8303,45.3806],[-122.8337,45.3786],[-122.8363,45.3752],[-122.8431,45.3699],[-122.8568,45.3605],[-122.8659,45.3545],[-122.8685,45.352],[-122.8775,45.3351],[-122.8854,45.3294],[-122.8888,45.3257],[-122.8935,45.3225],[-122.9,45.32]],[[-122.6778,45.5],[-122.6778,45.4955],[-122.6769,45.4924],[-122.6774,45.4951],[-122.6777,45.5]],[[-122.6769,45.4924],[-122.6789,45.4907],[-122.6816,45.49],[-122.6825,45.4868],[-122.6804,45.4819],[-122.6802,45.4806],[-122.6802,45.4803],[-122.6792,45.474],[-122.6815,45.4713],[-122.6865,45.4711],[-122.6892,45.4705],[-122.7117,45.4575],[-122.7211,45.4536],[-122.7213,45.4535],[-122.7263,45.4515],[-122.7281,45.45],[-122.7299,45.4466],[-122.7314,45.4456],[-122.7399,45.4435],[-122.7402,45.4434],[-122.7437,45.4429],[-122.7474,45.4419],[-122.757,45.437],[-122.7617,45.4352],[-122.7619,45.4351],[-122.7648,45.4341],[-122.7721,45.4311],[-122.7811,45.425],[-122.7893,45.4166]]]}},{"type":"Feature","properties":{"layer":"road","name":"I-205"},"geometry":{"type":"MultiLineString","coordinates":[[[-122.7495,45.3702],[-122.7439,45.3718],[-122.7405,45.3726],[-122.735,45.3732],[-122.7255,45.3731],[-122.7168,45.3725],[-122.7117,45.3715],[-122.7037,45.3692],[-122.6905,45.3666],[-122.6823,45.366],[-122.6789,45.3654],[-122.6736,45.3635],[-122.6701,45.3614],[-122.6662,45.3579],[-122.6609,45.3514],[-122.657,45.3488],[-122.6543,45.3478],[-122.6501,45.3473],[-122.6421,45.3486],[-122.6356,45.349],[-122.6296,45.3505],[-122.6255,45.3524],[-122.6173,45.3575],[-122.6118,45.362],[-122.6096,45.3629],[-122.6008,45.3653],[-122.5967,45.3667],[-122.5935,45.3691],[-122.592,45.3712],[-122.5871,45.3748],[-122.5816,45.3792],[-122.5798,45.3822],[-122.5736,45.3976],[-122.5713,45.4041],[-122.571,45.4075],[-122.5733,45.414],[-122.5737,45.4151],[-122.5741,45.4176],[-122.5726,45.4202],[-122.5664,45.4276],[-122.5655,45.4293],[-122.5655,45.4324],[-122.5724,45.4524],[-122.5726,45.4568],[-122.5708,45.4614],[-122.5667,45.4662],[-122.5651,45.4705],[-122.5659,45.4878],[-122.5652,45.4973],[-122.5652,45.5]],[[-122.5656,45.5],[-122.5655,45.4974],[-122.5663,45.4878],[-122.5656,45.4706],[-122.567,45.4665],[-122.5713,45.4614],[-122.573,45.4574],[-122.573,45.4525],[-122.5661,45.4322],[-122.5668,45.4279],[-122.5728,45.4205],[-122.5744,45.4179],[-122.574,45.4149],[-122.5714,45.4075],[-122.5715,45.4048],[-122.574,45.3978],[-122.5808,45.3808],[-122.5819,45.3792],[-122.5872,45.375],[-122.5923,45.3712],[-122.5947,45.3682],[-122.5973,45.3666],[-122.6008,45.3655],[-122.6097,45.363],[-122.6121,45.3621],[-122.6177,45.3575],[-122.6289,45.3511],[-122.6339,45.3495],[-122.6437,45.3487],[-122.6491,45.3477],[-122.6527,45.3478],[-122.6583,45.3501],[-122.6613,45.3525],[-122.6656,45.358],[-122.6677,45.36],[-122.6725,45.3637],[-122.6754,45.3651],[-122.6808,45.3664],[-122.6917,45.3672],[-122.6992,45.3687],[-122.7102,45.3717],[-122.718,45.3731],[-122.7219,45.3735],[-122.7344,45.3737],[-122.7393,45.3733],[-122.7439,45.3722],[-122.7497,45.3706]]]}},{"type":"Feature","properties":{"layer":"road","name":"Kruse Way"},"geometry":{"type":"LineString","coordinates":[[-122.7442,45.4211],[-122.744,45.421],[-122.7439,45.421],[-122.7439,45.4209],[-122.744,45.4209],[-122.7442,45.421]]}},{"type":"Feature","properties":{"layer":"road","name":"State Hwy 99E"},"geometry":{"type":"LineString","coordinates":[[-122.7501,45.2336],[-122.7464,45.2346],[-122.7436,45.2364],[-122.7386,45.2382],[-122.736,45.2397],[-122.7317,45.2439],[-122.7191,45.2519],[-122.7167,45.2532],[-122.7092,45.2551],[-122.704,45.2564],[-122.6985,45.2599],[-122.6922,45.2623],[-122.6821,45.2661],[-122.6779,45.2679],[-122.6754,45.2694],[-122.6722,45.2725],[-122.6627,45.2829],[-122.656,45.2882],[-122.6555,45.292],[-122.6573,45.2967],[-122.662,45.3017],[-122.663,45.3058],[-122.6616,45.3099],[-122.6596,45.3138],[-122.6584,45.3185],[-122.6588,45.3205],[-122.6581,45.324],[-122.6566,45.3273],[-122.6527,45.3318],[-122.6483,45.3356],[-122.6275,45.3457],[-122.6214,45.3472],[-122.6174,45.3491],[-122.6132,45.3527],[-122.6097,45.3557],[-122.6104,45.3578],[-122.609,45.3584],[-122.6035,45.3614],[-122.601,45.364],[-122.6008,45.3653],[-122.6008,45.3655],[-122.6017,45.3756],[-122.6033,45.3787],[-122.6317,45.4157],[-122.6326,45.4178],[-122.6351,45.4326],[-122.6363,45.4344],[-122.64,45.4375],[-122.6415,45.4404],[-122.6428,45.4455],[-122.6425,45.4484],[-122.6423,45.4492],[-122.639,45.4615],[-122.6387,45.4671],[-122.6417,45.4799],[-122.6435,45.4834],[-122.6449,45.4846],[-122.6499,45.4871],[-122.6558,45.4915],[-122.6574,45.494],[-122.6575,45.4942],[-122.6602,45.5]]}},{"type":"Feature","properties":{"layer":"road","name":"Milwaukie Expy"},"geometry":{"type":"LineString","coordinates":[[-122.6446,45.45],[-122.6423,45.4492],[-122.636,45.4488],[-122.633,45.4479],[-122.6312,45.4445],[-122.627,45.4419],[-122.6239,45.4382],[-122.6218,45.4368],[-122.6129,45.4327],[-122.6105,45.4319],[-122.5957,45.4252],[-122.5926,45.4244],[-122.5866,45.4237],[-122.5821,45.4227],[-122.5763,45.4218]]}},{"type":"Feature","properties":{"layer":"road","name":"McLoughlin Blvd"},"geometry":{"type":"LineString","coordinates":[[-122.6425,45.4484],[-122.6428,45.4455],[-122.6415,45.4404],[-122.64,45.4375],[-122.6363,45.4344],[-122.6351,45.4326],[-122.6326,45.4178],[-122.6317,45.4157],[-122.6033,45.3787],[-122.6017,45.3756],[-122.6008,45.3655],[-122.6008,45.3653],[-122.601,45.364],[-122.6035,45.3614],[-122.609,45.3584],[-122.6104,45.3578],[-122.6097,45.3557],[-122.6132,45.3527]]}},{"type":"Feature","properties":{"layer":"road","name":"State Hwy 212"},"geometry":{"type":"LineString","coordinates":[[-122.3434,45.4327],[-122.3437,45.4327],[-122.3546,45.4326],[-122.3625,45.4326],[-122.372,45.4326],[-122.3731,45.4318],[-122.3744,45.4303],[-122.3791,45.4286],[-122.3831,45.4272],[-122.3905,45.4237],[-122.3949,45.4227],[-122.3989,45.4193],[-122.4027,45.418],[-122.425,45.418],[-122.4525,45.4176],[-122.4586,45.4176],[-122.4634,45.4149],[-122.4702,45.4135],[-122.4773,45.4104],[-122.4982,45.4102],[-122.5019,45.4084],[-122.5057,45.4097],[-122.5225,45.4105],[-122.5256,45.4103],[-122.5338,45.4082],[-122.5377,45.4078],[-122.5577,45.4077],[-122.571,45.4075],[-122.5714,45.4075]]}},{"type":"Feature","properties":{"layer":"road","name":"Pacific Hwy 1"},"geometry":{"type":"MultiLineString","coordinates":[[[-122.7848,45.2614],[-122.7708,45.2783],[-122.7693,45.2814],[-122.7691,45.3004],[-122.7691,45.3318]],[[-122.7848,45.2619],[-122.7715,45.2779],[-122.7702,45.2799],[-122.7695,45.2832],[-122.7696,45.3317]]]}},{"type":"Feature","properties":{"layer":"road","name":"Wilco Hwy"},"geometry":{"type":"LineString","coordinates":[[-122.8361,45.1364],[-122.8348,45.1354],[-122.832,45.1312]]}},{"type":"Feature","properties":{"layer":"road","name":"Mount Hood Ave"},"geometry":{"type":"LineString","coordinates":[[-122.845,45.1518],[-122.8313,45.1513]]}},{"type":"Feature","properties":{"layer":"road","name":"State Hwy 10"},"geometry":{"type":"MultiLineString","coordinates":[[[-122.6777,45.5],[-122.6774,45.4951],[-122.6769,45.4924],[-122.6789,45.4907],[-122.6816,45.49],[-122.6825,45.4868],[-122.6804,45.4819],[-122.6802,45.4806],[-122.6805,45.4802],[-122.6802,45.4803],[-122.6804,45.4819]],[[-122.9,45.4608],[-122.898,45.4627],[-122.8912,45.4674],[-122.8842,45.4695],[-122.8741,45.4719],[-122.8675,45.4753],[-122.8555,45.4807],[-122.8457,45.4835],[-122.8353,45.4847],[-122.8161,45.4872],[-122.809,45.4874],[-122.804,45.4869],[-122.7991,45.4866],[-122.793,45.4865],[-122.7928,45.4865],[-122.7772,45.4865],[-122.7492,45.4861],[-122.7437,45.4871],[-122.7287,45.4871],[-122.7256,45.486],[-122.7202,45.4855],[-122.7165,45.4845],[-122.7108,45.482],[-122.7077,45.4816],[-122.7006,45.4791],[-122.6994,45.4785],[-122.6971,45.4781],[-122.6932,45.4788],[-122.6897,45.4801],[-122.6805,45.4802]],[[-122.6778,45.5],[-122.6778,45.4955],[-122.6769,45.4924]]]}},{"type":"Feature","properties":{"layer":"road","name":"US Hwy 26"},"geometry":{"type":"MultiLineString","coordinates":[[[-122.28,45.4011],[-122.2985,45.4074],[-122.3048,45.4106],[-122.3368,45.4282],[-122.3437,45.4327],[-122.3721,45.4521],[-122.3758,45.4548],[-122.3818,45.4601],[-122.3741,45.4537],[-122.3434,45.4327],[-122.3368,45.4282]],[[-122.6492,45.5],[-122.6446,45.4994],[-122.6402,45.4981],[-122.6305,45.4968],[-122.6189,45.4975],[-122.5787,45.4974],[-122.5655,45.4974],[-122.5652,45.4973],[-122.5583,45.4958],[-122.5421,45.4969],[-122.5409,45.497],[-122.5248,45.4976],[-122.5155,45.4992],[-122.5023,45.4959],[-122.4821,45.4918],[-122.473,45.4896],[-122.4701,45.4897],[-122.4677,45.4907],[-122.4578,45.4967],[-122.4567,45.497],[-122.4341,45.4972],[-122.4309,45.4979],[-122.4242,45.4981],[-122.4139,45.4979],[-122.4119,45.4958],[-122.41,45.4945],[-122.4064,45.4939],[-122.4011,45.4894],[-122.399,45.4853],[-122.3968,45.4769],[-122.3951,45.4724],[-122.3924,45.4696],[-122.396,45.4716],[-122.3973,45.4731],[-122.3968,45.4769]],[[-122.3831,45.4613],[-122.3818,45.4601]],[[-122.3924,45.4696],[-122.3831,45.4613]]]}},{"type":"Feature","properties":{"layer":"road","name":"State Hwy 217"},"geometry":{"type":"LineString","coordinates":[[-122.79,45.5],[-122.7911,45.4977],[-122.7923,45.4907],[-122.793,45.4865],[-122.7928,45.4822],[-122.7913,45.4786],[-122.7863,45.4719],[-122.7863,45.4635],[-122.7847,45.4579],[-122.7846,45.4513],[-122.783,45.4471],[-122.7804,45.445],[-122.7693,45.4398],[-122.7654,45.4377],[-122.7619,45.4351],[-122.7546,45.428],[-122.75,45.4252],[-122.7473,45.4223],[-122.7442,45.421],[-122.744,45.4209],[-122.7439,45.4209],[-122.7439,45.421],[-122.744,45.421],[-122.7442,45.4211],[-122.7461,45.4219],[-122.7491,45.4248],[-122.7554,45.4289],[-122.7617,45.4352],[-122.7654,45.4378],[-122.7688,45.4397],[-122.7809,45.4454],[-122.7828,45.4471],[-122.7844,45.4515],[-122.7845,45.4578],[-122.7861,45.4642],[-122.7859,45.4709],[-122.7864,45.4729],[-122.791,45.4784],[-122.7928,45.4831],[-122.7928,45.4865],[-122.7921,45.4907],[-122.7908,45.4979],[-122.7897,45.5]]}},{"type":"Feature","properties":{"layer":"road","name":"State Hwy 219"},"geometry":{"type":"MultiLineString","coordinates":[[[-122.8805,45.1511],[-122.8809,45.1511],[-122.8832,45.1511],[-122.8854,45.151],[-122.8832,45.1511]],[[-122.9,45.1561],[-122.8961,45.1546],[-122.8966,45.1512],[-122.8932,45.151],[-122.8854,45.151]]]}},{"type":"Feature","properties":{"layer":"road","name":"Newberg Hwy"},"geometry":{"type":"MultiLineString","coordinates":[[[-122.845,45.1518],[-122.8493,45.1519],[-122.8573,45.1496],[-122.8597,45.1495],[-122.8679,45.1497],[-122.8707,45.1509],[-122.8762,45.151],[-122.8805,45.1511],[-122.8809,45.1511],[-122.8832,45.1511],[-122.8854,45.151],[-122.8832,45.1511]],[[-122.8932,45.151],[-122.8854,45.151]]]}},{"type":"Feature","properties":{"layer":"road","name":"State Hwy 213"},"geometry":{"type":"MultiLineString","coordinates":[[[-122.5787,45.5],[-122.5787,45.4974],[-122.5791,45.4768],[-122.579,45.4615],[-122.5789,45.4473],[-122.5793,45.4318],[-122.5775,45.4253],[-122.5772,45.4247],[-122.5761,45.4218],[-122.576,45.4214],[-122.5744,45.4179],[-122.5741,45.4176],[-122.5733,45.414],[-122.571,45.4075],[-122.5713,45.4041],[-122.5736,45.3976],[-122.5798,45.3822],[-122.5816,45.3792],[-122.5871,45.3748],[-122.5858,45.3713],[-122.5851,45.3667],[-122.5843,45.3643],[-122.5815,45.36],[-122.5807,45.3543],[-122.5784,45.3486],[-122.5781,45.3428],[-122.5773,45.3414],[-122.574,45.3387],[-122.5735,45.3357],[-122.5754,45.3313],[-122.5781,45.327],[-122.5789,45.3242],[-122.5784,45.3218],[-122.5721,45.3139],[-122.5658,45.3055],[-122.563,45.3002],[-122.563,45.2972],[-122.5642,45.2908],[-122.5737,45.2593],[-122.5751,45.2571],[-122.5815,45.2537],[-122.5826,45.2523],[-122.5841,45.2477],[-122.5844,45.244],[-122.587,45.2406],[-122.5882,45.2339],[-122.5869,45.2315],[-122.5827,45.2279],[-122.5817,45.225],[-122.5809,45.198],[-122.5854,45.1926],[-122.5891,45.1844],[-122.5956,45.1721],[-122.6064,45.1507],[-122.6106,45.1425],[-122.6122,45.1372],[-122.6134,45.1353],[-122.6219,45.1256],[-122.6275,45.1184],[-122.629,45.117],[-122.6401,45.1084],[-122.6504,45.1]],[[-122.5737,45.4151],[-122.5733,45.414]],[[-122.5871,45.3748],[-122.5872,45.375],[-122.5819,45.3792],[-122.5808,45.3808],[-122.574,45.3978],[-122.5715,45.4048],[-122.5714,45.4075],[-122.574,45.4149],[-122.5763,45.4218],[-122.5772,45.4241],[-122.5775,45.4253]]]}},{"type":"Feature","properties":{"layer":"road","name":"State Hwy 141"},"geometry":{"type":"LineString","coordinates":[[-122.7847,45.4579],[-122.7845,45.4578],[-122.7824,45.4568],[-122.7789,45.4549],[-122.765,45.4502],[-122.7656,45.4474],[-122.7654,45.4378],[-122.7654,45.4377],[-122.7648,45.4341],[-122.7646,45.4297],[-122.7661,45.4283],[-122.7657,45.4259],[-122.7656,45.4187],[-122.7644,45.415],[-122.7645,45.4043],[-122.7574,45.4043],[-122.7525,45.4022],[-122.7543,45.4007],[-122.7564,45.389],[-122.7581,45.3852],[-122.7642,45.3843],[-122.7647,45.3788],[-122.7722,45.3699],[-122.773,45.3677],[-122.7734,45.3626],[-122.7748,45.3603],[-122.7748,45.3448],[-122.7738,45.3429],[-122.7729,45.3382],[-122.772,45.337],[-122.7695,45.3361],[-122.7691,45.336]]}},{"type":"Feature","properties":{"layer":"road","name":"State Hwy 210"},"geometry":{"type":"LineString","coordinates":[[-122.7492,45.4861],[-122.7618,45.4801],[-122.7636,45.4784],[-122.7637,45.4763],[-122.7661,45.4736],[-122.7681,45.4729],[-122.7731,45.4725],[-122.7746,45.4715],[-122.7824,45.4568],[-122.7844,45.4515],[-122.7846,45.4513],[-122.788,45.4481],[-122.7936,45.4458],[-122.8014,45.444],[-122.8105,45.4429],[-122.817,45.4411],[-122.8262,45.4382],[-122.8338,45.4342],[-122.8374,45.4333],[-122.8462,45.4277],[-122.8485,45.4269],[-122.8569,45.4259],[-122.8672,45.4258],[-122.8779,45.4233],[-122.8807,45.4222],[-122.8826,45.4203],[-122.8863,45.4187],[-122.8958,45.4187],[-122.9,45.4192]]}},{"type":"Feature","properties":{"layer":"road","name":"Clackamas Hwy"},"geometry":{"type":"LineString","coordinates":[[-122.28,45.2515],[-122.2828,45.2562],[-122.2857,45.2588],[-122.295,45.2639],[-122.3011,45.2653],[-122.3067,45.2684],[-122.3148,45.27],[-122.319,45.2729],[-122.3219,45.2782],[-122.3259,45.2813],[-122.3314,45.2837],[-122.3316,45.2839],[-122.3335,45.2852],[-122.3386,45.2876],[-122.3414,45.2898],[-122.3426,45.2923],[-122.3451,45.3096],[-122.349,45.3317],[-122.3514,45.3446],[-122.3532,45.3498],[-122.3566,45.3551],[-122.3589,45.3576],[-122.3608,45.3592],[-122.3691,45.3653],[-122.374,45.3704],[-122.3877,45.3808],[-122.3964,45.3861],[-122.4141,45.3909],[-122.4195,45.393],[-122.4214,45.3943],[-122.4243,45.394],[-122.4268,45.393],[-122.4295,45.3928],[-122.4331,45.3911],[-122.4359,45.3904],[-122.439,45.3875],[-122.4428,45.3859],[-122.4467,45.385],[-122.4528,45.3851],[-122.4602,45.3888],[-122.4612,45.3936],[-122.4641,45.396],[-122.4702,45.3977],[-122.4753,45.3974],[-122.4785,45.3959],[-122.4818,45.3954],[-122.4852,45.3968],[-122.49,45.3955],[-122.4916,45.3942],[-122.4974,45.3949],[-122.4991,45.3967],[-122.5013,45.4046],[-122.5057,45.4097],[-122.5019,45.4084],[-122.4982,45.4102],[-122.4773,45.4104],[-122.4702,45.4135],[-122.4634,45.4149],[-122.4586,45.4176],[-122.4525,45.4176]]}},{"type":"Feature","properties":{"layer":"road","name":"Molalla Rd"},"geometry":{"type":"LineString","coordinates":[[-122.7975,45.1514],[-122.7999,45.1517],[-122.8052,45.1512],[-122.822,45.1512],[-122.823,45.1512],[-122.8311,45.1513],[-122.8312,45.1513]]}},{"type":"Feature","properties":{"layer":"road","name":"Hillsboro-Silverton Hwy"},"geometry":{"type":"MultiLineString","coordinates":[[[-122.8762,45.151],[-122.8707,45.1509],[-122.8679,45.1497],[-122.8597,45.1495]],[[-122.7869,45.1119],[-122.7845,45.1068],[-122.7845,45.1]],[[-122.7881,45.1129],[-122.8047,45.1218],[-122.8059,45.1257],[-122.8167,45.1257],[-122.8196,45.126],[-122.8311,45.1305],[-122.832,45.1312],[-122.8348,45.1354],[-122.8361,45.1364],[-122.8417,45.1362],[-122.8439,45.137]],[[-122.845,45.1518],[-122.8313,45.1513]]]}},{"type":"Feature","properties":{"layer":"road","name":"State Hwy 43"},"geometry":{"type":"LineString","coordinates":[[-122.609,45.3584],[-122.6102,45.3596],[-122.6096,45.3629],[-122.6097,45.363],[-122.6115,45.365],[-122.6198,45.3697],[-122.6281,45.3731],[-122.6311,45.3751],[-122.6363,45.3796],[-122.6392,45.385],[-122.651,45.396],[-122.6597,45.4039],[-122.6601,45.4087],[-122.6637,45.4099],[-122.6646,45.4111],[-122.6637,45.4156],[-122.6623,45.4218],[-122.6609,45.4241],[-122.6587,45.4268],[-122.6581,45.4288],[-122.655,45.4327],[-122.6537,45.4348],[-122.6528,45.4386],[-122.6566,45.444],[-122.6568,45.4466],[-122.6605,45.4533],[-122.6679,45.4614],[-122.6701,45.4674],[-122.6712,45.4687],[-122.6715,45.473],[-122.6723,45.478],[-122.6754,45.4857],[-122.6752,45.488],[-122.673,45.4916],[-122.6728,45.4995]]}},{"type":"Feature","properties":{"layer":"road","name":"Willamette Dr"},"geometry":{"type":"LineString","coordinates":[[-122.6102,45.3596],[-122.6096,45.3629],[-122.6097,45.363],[-122.6115,45.365],[-122.6198,45.3697],[-122.6281,45.3731],[-122.6311,45.3751],[-122.6363,45.3796],[-122.6392,45.385],[-122.651,45.396]]}},{"type":"Feature","properties":{"layer":"road","name":"State Hwy 8"},"geometry":{"type":"LineString","coordinates":[[-122.7537,45.5],[-122.7566,45.4976],[-122.761,45.4985],[-122.7674,45.4979],[-122.7732,45.4948],[-122.7921,45.4907],[-122.7923,45.4907],[-122.7963,45.4897],[-122.8042,45.4884],[-122.8108,45.4883],[-122.8148,45.4884],[-122.831,45.4901],[-122.8377,45.4916],[-122.8454,45.4916],[-122.8917,45.4964],[-122.9,45.4973]]}},{"type":"Feature","properties":{"layer":"road","name":"State Hwy 170"},"geometry":{"type":"LineString","coordinates":[[-122.6813,45.1299],[-122.6814,45.151],[-122.6815,45.1646],[-122.6801,45.167],[-122.6808,45.1694],[-122.6798,45.1714],[-122.6799,45.1798],[-122.6794,45.1824],[-122.6791,45.2078],[-122.6764,45.2138],[-122.6764,45.2158],[-122.6788,45.2192],[-122.6795,45.222],[-122.6788,45.2247],[-122.6811,45.2323],[-122.6841,45.236],[-122.6872,45.2428],[-122.6874,45.2453]]}},{"type":"Feature","properties":{"layer":"road","name":"Carver Rd"},"geometry":{"type":"LineString","coordinates":[[-122.5714,45.4075],[-122.571,45.4075],[-122.5577,45.4077],[-122.5377,45.4078],[-122.5338,45.4082],[-122.5256,45.4103],[-122.5225,45.4105],[-122.5057,45.4097]]}},{"type":"Feature","properties":{"layer":"road","name":"Clackamas-Boring Hwy No 174"},"geometry":{"type":"MultiLineString","coordinates":[[[-122.4525,45.4176],[-122.425,45.418],[-122.4027,45.418],[-122.3989,45.4193],[-122.3949,45.4227],[-122.3905,45.4237],[-122.3831,45.4272],[-122.3791,45.4286],[-122.3744,45.4303],[-122.3731,45.4318],[-122.372,45.4326],[-122.3625,45.4326]],[[-122.3546,45.4326],[-122.3437,45.4327],[-122.3434,45.4327]]]}},{"type":"Feature","properties":{"layer":"road","name":"Hwy 212"},"geometry":{"type":"LineString","coordinates":[[-122.3731,45.4318],[-122.3744,45.4303]]}},{"type":"Feature","properties":{"layer":"road","name":"82nd Dr"},"geometry":{"type":"LineString","coordinates":[[-122.5763,45.4218],[-122.5761,45.4218],[-122.5754,45.4217]]}},{"type":"Feature","properties":{"layer":"road","name":"Canby-Marquam Hwy"},"geometry":{"type":"LineString","coordinates":[[-122.6813,45.1299],[-122.6814,45.151],[-122.6815,45.1646],[-122.6801,45.167],[-122.6808,45.1694],[-122.6798,45.1714],[-122.6799,45.1798],[-122.6794,45.1824],[-122.6791,45.2078],[-122.6764,45.2138],[-122.6764,45.2158],[-122.6788,45.2192],[-122.6795,45.222],[-122.6788,45.2247],[-122.6811,45.2323],[-122.6841,45.236],[-122.6872,45.2428],[-122.6874,45.2453]]}},{"type":"Feature","properties":{"layer":"road","name":"Eagle Creek-Sandy Hwy No 172"},"geometry":{"type":"LineString","coordinates":[[-122.28,45.3817],[-122.2865,45.3785],[-122.2966,45.3784],[-122.303,45.3772],[-122.3099,45.3754],[-122.3198,45.3749],[-122.321,45.3743],[-122.3366,45.363],[-122.338,45.3628],[-122.3461,45.3651],[-122.3483,45.3644],[-122.3521,45.3605],[-122.3589,45.3576]]}},{"type":"Feature","properties":{"layer":"road","name":"Mount Hood Fwy"},"geometry":{"type":"LineString","coordinates":[[-122.3818,45.4601],[-122.3831,45.4613]]}},{"type":"Feature","properties":{"layer":"road","name":"State Hwy 551"},"geometry":{"type":"LineString","coordinates":[[-122.78,45.2027],[-122.7793,45.2039],[-122.7781,45.2104],[-122.7711,45.2504],[-122.7694,45.2596]]}},{"type":"Feature","properties":{"layer":"road","name":"Young St"},"geometry":{"type":"LineString","coordinates":[[-122.8439,45.137],[-122.8417,45.1362]]}},{"type":"Feature","properties":{"layer":"road","name":"Clackamas-Boring Hwy 174"},"geometry":{"type":"LineString","coordinates":[[-122.3546,45.4326],[-122.3625,45.4326]]}},{"type":"Feature","properties":{"layer":"water","name":"Willamette Riv"},"geometry":{"type":"Polygon","coordinates":[[[-122.8514,45.2597],[-122.8499,45.2597],[-122.8467,45.2614],[-122.8423,45.2657],[-122.8379,45.2696],[-122.8346,45.2741],[-122.8335,45.2741],[-122.83,45.2773],[-122.8286,45.2782],[-122.8228,45.28],[-122.8182,45.2807],[-122.81,45.2822],[-122.8054,45.2838],[-122.8026,45.2845],[-122.7966,45.2872],[-122.7938,45.289],[-122.7886,45.2911],[-122.7842,45.292],[-122.7791,45.2924],[-122.7724,45.2911],[-122.7686,45.2906],[-122.7632,45.2913],[-122.7602,45.2921],[-122.7567,45.2936],[-122.7549,45.2947],[-122.7475,45.2982],[-122.7414,45.3001],[-122.7361,45.3011],[-122.7313,45.3018],[-122.7268,45.3021],[-122.7237,45.3018],[-122.7213,45.3007],[-122.72,45.2995],[-122.7202,45.2969],[-122.7196,45.2967],[-122.7201,45.2976],[-122.7185,45.2984],[-122.7175,45.2977],[-122.7126,45.2959],[-122.7084,45.2955],[-122.7057,45.2956],[-122.7014,45.2967],[-122.6966,45.2985],[-122.6934,45.299],[-122.689,45.2991],[-122.6869,45.2987],[-122.6849,45.296],[-122.6838,45.2934],[-122.681,45.2909],[-122.6739,45.2864],[-122.6686,45.2838],[-122.6641,45.2833],[-122.6616,45.2869],[-122.6592,45.2895],[-122.6579,45.2949],[-122.6588,45.2972],[-122.6628,45.3013],[-122.6647,45.3043],[-122.6651,45.3062],[-122.6633,45.3088],[-122.662,45.3112],[-122.6621,45.3132],[-122.6611,45.3157],[-122.6619,45.3163],[-122.663,45.3197],[-122.6618,45.3222],[-122.659,45.3247],[-122.6584,45.3278],[-122.6551,45.3307],[-122.6543,45.3318],[-122.6509,45.3342],[-122.6492,45.3359],[-122.6467,45.3373],[-122.6405,45.3399],[-122.6271,45.3466],[-122.625,45.3474],[-122.6199,45.3484],[-122.6178,45.3497],[-122.6141,45.3527],[-122.6151,45.3541],[-122.6119,45.3568],[-122.6109,45.3579],[-122.6045,45.3612],[-122.6023,45.3637],[-122.6021,45.3651],[-122.604,45.3692],[-122.607,45.3722],[-122.6067,45.3729],[-122.6101,45.3737],[-122.6111,45.3744],[-122.6156,45.3759],[-122.6167,45.3779],[-122.6199,45.3805],[-122.6215,45.3834],[-122.6218,45.3864],[-122.6224,45.3883],[-122.6281,45.3949],[-122.6302,45.3951],[-122.6315,45.3962],[-122.6341,45.3963],[-122.6404,45.4017],[-122.6421,45.4028],[-122.6448,45.4031],[-122.6453,45.4044],[-122.6471,45.4056],[-122.649,45.406],[-122.6564,45.4098],[-122.657,45.4109],[-122.6563,45.4143],[-122.6544,45.4167],[-122.6539,45.4184],[-122.6543,45.42],[-122.6543,45.4242],[-122.6521,45.4267],[-122.65,45.4275],[-122.6476,45.4299],[-122.6471,45.4314],[-122.6478,45.4345],[-122.6496,45.4355],[-122.6491,45.4369],[-122.6479,45.4375],[-122.6457,45.4364],[-122.6429,45.4417],[-122.6427,45.4419],[-122.6441,45.4445],[-122.6489,45.4452],[-122.6516,45.4468],[-122.6545,45.4497],[-122.657,45.4542],[-122.6581,45.4554],[-122.6594,45.4579],[-122.661,45.4578],[-122.6591,45.4543],[-122.6526,45.4457],[-122.6477,45.444],[-122.646,45.441],[-122.6463,45.4396],[-122.6472,45.4388],[-122.6505,45.4372],[-122.6512,45.4361],[-122.6489,45.4327],[-122.6506,45.4327],[-122.651,45.4317],[-122.65,45.4305],[-122.6521,45.4302],[-122.6537,45.4292],[-122.6552,45.4274],[-122.6558,45.4254],[-122.6579,45.4235],[-122.6569,45.4223],[-122.6562,45.419],[-122.6595,45.4123],[-122.6593,45.4097],[-122.656,45.408],[-122.6545,45.4078],[-122.6521,45.4058],[-122.6493,45.4041],[-122.6471,45.4035],[-122.6459,45.401],[-122.6429,45.3996],[-122.6412,45.3996],[-122.6389,45.399],[-122.6376,45.3966],[-122.6302,45.3937],[-122.6319,45.3931],[-122.6299,45.3919],[-122.6286,45.3891],[-122.6282,45.3871],[-122.6254,45.3848],[-122.6245,45.3847],[-122.6238,45.382],[-122.6237,45.38],[-122.6227,45.3793],[-122.621,45.3765],[-122.621,45.3755],[-122.6188,45.3744],[-122.6155,45.3738],[-122.6115,45.373],[-122.6076,45.3707],[-122.6065,45.3698],[-122.6056,45.3692],[-122.6052,45.3658],[-122.6054,45.365],[-122.6081,45.3618],[-122.6096,45.3597],[-122.6118,45.3588],[-122.613,45.3578],[-122.6167,45.3563],[-122.6257,45.3498],[-122.6288,45.3482],[-122.6327,45.347],[-122.6357,45.3457],[-122.6418,45.3425],[-122.6452,45.3404],[-122.6483,45.3389],[-122.6531,45.3389],[-122.6544,45.3397],[-122.6548,45.3394],[-122.6525,45.3384],[-122.657,45.3352],[-122.6591,45.3333],[-122.6626,45.3286],[-122.6634,45.3267],[-122.6665,45.3234],[-122.6665,45.3207],[-122.6671,45.3184],[-122.665,45.3137],[-122.6668,45.3102],[-122.6667,45.3079],[-122.6685,45.306],[-122.6676,45.3051],[-122.6674,45.3035],[-122.6651,45.3011],[-122.6626,45.2978],[-122.6622,45.2946],[-122.664,45.2912],[-122.6646,45.2879],[-122.6646,45.2858],[-122.6657,45.2856],[-122.6703,45.2873],[-122.6744,45.2901],[-122.6782,45.2921],[-122.6803,45.2927],[-122.6819,45.2948],[-122.683,45.297],[-122.6835,45.2998],[-122.6928,45.301],[-122.696,45.3005],[-122.6984,45.2998],[-122.7027,45.298],[-122.7059,45.2973],[-122.7115,45.2974],[-122.716,45.2988],[-122.7193,45.3016],[-122.7236,45.3037],[-122.7295,45.3038],[-122.7351,45.303],[-122.7402,45.3022],[-122.746,45.3007],[-122.7499,45.2993],[-122.7552,45.2962],[-122.759,45.2944],[-122.7636,45.2927],[-122.7668,45.2923],[-122.7728,45.2928],[-122.7774,45.294],[-122.7822,45.294],[-122.7874,45.2932],[-122.7917,45.292],[-122.8003,45.2875],[-122.8055,45.2854],[-122.8146,45.283],[-122.8201,45.2822],[-122.8235,45.2814],[-122.8285,45.2799],[-122.8319,45.2784],[-122.8342,45.2765],[-122.8382,45.271],[-122.8415,45.2679],[-122.8466,45.2627],[-122.8492,45.2608],[-122.8514,45.2597]],[[-122.6663,45.3227],[-122.6649,45.3244],[-122.6647,45.3213],[-122.666,45.321],[-122.6663,45.3227]],[[-122.6654,45.3179],[-122.6636,45.3195],[-122.6626,45.317],[-122.6627,45.315],[-122.6643,45.3153],[-122.6654,45.3179]],[[-122.6642,45.2877],[-122.6636,45.2912],[-122.6625,45.2903],[-122.6642,45.2877]],[[-122.6454,45.4017],[-122.6439,45.4022],[-122.6423,45.4016],[-122.6427,45.4],[-122.6454,45.4017]]]}},{"type":"Feature","properties":{"layer":"water","name":"Clackamas Riv"},"geometry":{"type":"Polygon","coordinates":[[[-122.3043,45.2455],[-122.3027,45.2467],[-122.3,45.2502],[-122.2984,45.2513],[-122.2996,45.2518],[-122.3009,45.2498],[-122.3038,45.2468],[-122.3043,45.2455]]]}},{"type":"Feature","properties":{"layer":"water","name":"Clackamas Riv"},"geometry":{"type":"Polygon","coordinates":[[[-122.3327,45.2829],[-122.3334,45.2834],[-122.3398,45.2854],[-122.3432,45.2873],[-122.3439,45.2888],[-122.3433,45.2906],[-122.3436,45.293],[-122.3464,45.2955],[-122.3465,45.2965],[-122.349,45.2986],[-122.3499,45.3],[-122.3511,45.2985],[-122.3494,45.2978],[-122.3488,45.2955],[-122.3455,45.2936],[-122.3444,45.2921],[-122.3451,45.2896],[-122.3443,45.2874],[-122.3416,45.2856],[-122.3371,45.284],[-122.3348,45.2828],[-122.3326,45.2825],[-122.3327,45.2829]]]}},{"type":"Feature","properties":{"layer":"water","name":"Faraday Lk"},"geometry":{"type":"Polygon","coordinates":[[[-122.321,45.2674],[-122.3199,45.2657],[-122.3185,45.2644],[-122.3165,45.2637],[-122.3145,45.2645],[-122.3111,45.2637],[-122.3108,45.2646],[-122.3149,45.2662],[-122.321,45.2674]]]}},{"type":"Feature","properties":{"layer":"water","name":"Lk Oswego"},"geometry":{"type":"Polygon","coordinates":[[[-122.7181,45.404],[-122.7179,45.4038],[-122.7167,45.4044],[-122.7147,45.4044],[-122.7149,45.4028],[-122.7145,45.4028],[-122.7138,45.4044],[-122.7111,45.4049],[-122.7126,45.4027],[-122.7123,45.4026],[-122.7107,45.4042],[-122.7096,45.4034],[-122.7099,45.4021],[-122.7096,45.402],[-122.709,45.4039],[-122.7038,45.406],[-122.7025,45.4061],[-122.6993,45.4075],[-122.6978,45.4067],[-122.6957,45.4074],[-122.6941,45.4089],[-122.6898,45.4095],[-122.6849,45.412],[-122.6804,45.4121],[-122.6789,45.4109],[-122.6777,45.4112],[-122.6746,45.4111],[-122.6715,45.4104],[-122.6691,45.4108],[-122.668,45.4103],[-122.6669,45.4119],[-122.6693,45.4115],[-122.6764,45.413],[-122.6744,45.4143],[-122.6743,45.415],[-122.6756,45.4155],[-122.6779,45.4147],[-122.6818,45.4155],[-122.6841,45.4148],[-122.6865,45.4148],[-122.6882,45.4136],[-122.6903,45.4145],[-122.6915,45.413],[-122.6941,45.4118],[-122.6953,45.4108],[-122.7011,45.411],[-122.7033,45.4098],[-122.7059,45.4089],[-122.7078,45.409],[-122.7124,45.4079],[-122.715,45.4069],[-122.7167,45.4058],[-122.7181,45.404]]]}},{"type":"Feature","properties":{"layer":"water"},"geometry":{"type":"Polygon","coordinates":[[[-122.3327,45.2829],[-122.3326,45.2825],[-122.3285,45.2812],[-122.3282,45.2816],[-122.3317,45.2824],[-122.3327,45.2829]]]}},{"type":"Feature","properties":{"layer":"water","name":"Clackamas Riv"},"geometry":{"type":"Polygon","coordinates":[[[-122.2806,45.2441],[-122.28,45.2437],[-122.28,45.2443],[-122.2806,45.2441]]]}},{"type":"Feature","properties":{"layer":"water","name":"Clackamas Riv"},"geometry":{"type":"Polygon","coordinates":[[[-122.3823,45.3534],[-122.3813,45.355],[-122.3817,45.3561],[-122.3831,45.3574],[-122.386,45.3607],[-122.39,45.3636],[-122.3948,45.3659],[-122.3974,45.3686],[-122.3981,45.3709],[-122.3979,45.3734],[-122.4016,45.3763],[-122.4006,45.3766],[-122.3982,45.3786],[-122.3998,45.38],[-122.4019,45.3803],[-122.4043,45.3779],[-122.4064,45.3777],[-122.4096,45.3783],[-122.412,45.3809],[-122.4135,45.382],[-122.4162,45.3857],[-122.4202,45.3883],[-122.4222,45.3892],[-122.4243,45.3886],[-122.4322,45.3899],[-122.4336,45.3896],[-122.4349,45.3883],[-122.4362,45.3861],[-122.4395,45.384],[-122.4445,45.3831],[-122.449,45.3845],[-122.4504,45.3846],[-122.4557,45.3845],[-122.4593,45.3848],[-122.4662,45.3843],[-122.4679,45.3845],[-122.4702,45.3862],[-122.47,45.3879],[-122.4706,45.3911],[-122.4715,45.3927],[-122.4731,45.3935],[-122.4756,45.394],[-122.4808,45.3937],[-122.4828,45.3939],[-122.4853,45.392],[-122.4879,45.3926],[-122.4904,45.3943],[-122.4912,45.3939],[-122.4966,45.393],[-122.4976,45.3931],[-122.5025,45.3957],[-122.5038,45.3969],[-122.5069,45.4005],[-122.5077,45.4034],[-122.5116,45.4079],[-122.5136,45.4092],[-122.5154,45.4096],[-122.5169,45.4091],[-122.5166,45.4087],[-122.5151,45.409],[-122.5133,45.4084],[-122.5108,45.4057],[-122.5092,45.4024],[-122.5075,45.4],[-122.5037,45.396],[-122.5001,45.3937],[-122.4959,45.3924],[-122.4903,45.3938],[-122.4889,45.392],[-122.4818,45.3912],[-122.4791,45.3901],[-122.4771,45.39],[-122.4734,45.3905],[-122.4722,45.3911],[-122.4708,45.3859],[-122.47,45.3845],[-122.4666,45.3836],[-122.4631,45.3839],[-122.4561,45.3839],[-122.4506,45.3842],[-122.4478,45.3831],[-122.4439,45.3826],[-122.4418,45.3827],[-122.4391,45.3836],[-122.437,45.3848],[-122.4349,45.3866],[-122.4338,45.3889],[-122.4318,45.3895],[-122.4274,45.3885],[-122.4247,45.3882],[-122.4213,45.3884],[-122.4167,45.3835],[-122.4133,45.3812],[-122.4108,45.3784],[-122.4093,45.3777],[-122.4046,45.3769],[-122.4026,45.3761],[-122.4,45.3737],[-122.4011,45.3719],[-122.4029,45.3712],[-122.4019,45.3701],[-122.3996,45.3735],[-122.3987,45.3732],[-122.3993,45.3702],[-122.3987,45.3678],[-122.3963,45.3658],[-122.3916,45.3639],[-122.3884,45.3618],[-122.3852,45.3591],[-122.3835,45.3566],[-122.3855,45.3533],[-122.3851,45.3523],[-122.3857,45.3503],[-122.3854,45.3488],[-122.3828,45.3442],[-122.3833,45.3434],[-122.3871,45.3415],[-122.3896,45.3383],[-122.3897,45.3367],[-122.3867,45.3348],[-122.3843,45.3339],[-122.3826,45.332],[-122.3819,45.3295],[-122.3821,45.3223],[-122.3836,45.3196],[-122.3875,45.3165],[-122.3869,45.3142],[-122.3858,45.3135],[-122.3815,45.3123],[-122.3706,45.3087],[-122.3692,45.308],[-122.3663,45.3079],[-122.3645,45.3074],[-122.365,45.306],[-122.3692,45.3027],[-122.3689,45.2994],[-122.3691,45.2971],[-122.3669,45.2961],[-122.3657,45.2961],[-122.3623,45.2989],[-122.3607,45.2991],[-122.3573,45.3004],[-122.3551,45.3007],[-122.3513,45.2996],[-122.3512,45.3002],[-122.3563,45.3011],[-122.3577,45.3008],[-122.3631,45.2989],[-122.3664,45.2968],[-122.3677,45.2972],[-122.3682,45.3005],[-122.368,45.3029],[-122.3671,45.3042],[-122.3639,45.3061],[-122.3616,45.3084],[-122.3626,45.3095],[-122.3643,45.3092],[-122.3661,45.3105],[-122.3681,45.3108],[-122.3714,45.3106],[-122.3728,45.3114],[-122.3765,45.3124],[-122.3799,45.3142],[-122.3826,45.3137],[-122.386,45.3148],[-122.3871,45.3162],[-122.3835,45.3186],[-122.3824,45.32],[-122.3811,45.3226],[-122.3806,45.3292],[-122.3807,45.3312],[-122.3827,45.3333],[-122.3851,45.335],[-122.3873,45.3357],[-122.3894,45.3373],[-122.3885,45.3384],[-122.3825,45.3404],[-122.3808,45.3418],[-122.3804,45.3453],[-122.3834,45.3465],[-122.3851,45.3492],[-122.3843,45.3513],[-122.3823,45.3534]],[[-122.3875,45.34],[-122.3866,45.3412],[-122.3814,45.3435],[-122.3819,45.3418],[-122.3841,45.3404],[-122.3875,45.34]],[[-122.3847,45.3527],[-122.3844,45.3549],[-122.3827,45.3567],[-122.3816,45.3552],[-122.3824,45.3539],[-122.3847,45.3527]],[[-122.382,45.3131],[-122.3804,45.3139],[-122.378,45.3131],[-122.3774,45.3119],[-122.382,45.3131]]]}},{"type":"Feature","properties":{"layer":"water"},"geometry":{"type":"Polygon","coordinates":[[[-122.5991,45.3748],[-122.5989,45.3742],[-122.5978,45.3748],[-122.5952,45.3751],[-122.5908,45.3782],[-122.5878,45.378],[-122.5835,45.3786],[-122.5811,45.3801],[-122.5787,45.3799],[-122.5765,45.3787],[-122.5752,45.3796],[-122.5738,45.3823],[-122.5735,45.3851],[-122.5738,45.3882],[-122.5728,45.3896],[-122.5653,45.394],[-122.5608,45.3965],[-122.5565,45.3977],[-122.5549,45.3996],[-122.5535,45.3999],[-122.5494,45.3975],[-122.5474,45.3973],[-122.5442,45.3949],[-122.5393,45.3931],[-122.538,45.3935],[-122.5343,45.3932],[-122.5289,45.3933],[-122.5259,45.3942],[-122.5235,45.3946],[-122.5227,45.396],[-122.5233,45.3972],[-122.5223,45.3988],[-122.523,45.3995],[-122.5223,45.401],[-122.5181,45.4044],[-122.5166,45.4087],[-122.5169,45.4091],[-122.5185,45.4065],[-122.5212,45.4036],[-122.523,45.4021],[-122.5241,45.3981],[-122.5245,45.395],[-122.5301,45.3938],[-122.5377,45.3939],[-122.5394,45.3933],[-122.5434,45.3948],[-122.5465,45.3972],[-122.5492,45.3979],[-122.5525,45.4],[-122.5544,45.4002],[-122.5573,45.3977],[-122.5618,45.3964],[-122.5654,45.3946],[-122.5731,45.3902],[-122.5743,45.3889],[-122.5744,45.3856],[-122.5739,45.3843],[-122.5751,45.3806],[-122.5765,45.3792],[-122.58,45.3806],[-122.5813,45.3807],[-122.5828,45.3793],[-122.585,45.3786],[-122.5912,45.3786],[-122.5935,45.3772],[-122.5941,45.3763],[-122.5962,45.3752],[-122.5991,45.3748]]]}},{"type":"Feature","properties":{"layer":"water","name":"Mompano Reservoir"},"geometry":{"type":"Polygon","coordinates":[[[-122.5086,45.3102],[-122.5063,45.31],[-122.5056,45.309],[-122.5023,45.3079],[-122.5014,45.3084],[-122.5037,45.3108],[-122.5026,45.3137],[-122.5033,45.3146],[-122.5055,45.3145],[-122.5074,45.3126],[-122.5074,45.3105],[-122.5086,45.3102]]]}},{"type":"Feature","properties":{"layer":"water"},"geometry":{"type":"Polygon","coordinates":[[[-122.5316,45.124],[-122.5309,45.1223],[-122.5295,45.1224],[-122.5253,45.1238],[-122.5268,45.1263],[-122.5283,45.1269],[-122.5316,45.124]]]}},{"type":"Feature","properties":{"layer":"water","name":"Clackamette Cv"},"geometry":{"type":"Polygon","coordinates":[[[-122.6005,45.3722],[-122.5986,45.3708],[-122.5967,45.37],[-122.5955,45.3707],[-122.5942,45.3742],[-122.5966,45.3745],[-122.5989,45.3742],[-122.5991,45.3748],[-122.5993,45.3747],[-122.5994,45.3732],[-122.5995,45.3724],[-122.6005,45.3722]]]}},{"type":"Feature","properties":{"layer":"water"},"geometry":{"type":"Polygon","coordinates":[[[-122.6544,45.3397],[-122.6597,45.3404],[-122.6623,45.341],[-122.6637,45.3406],[-122.6692,45.3435],[-122.673,45.3467],[-122.6737,45.3462],[-122.6695,45.3435],[-122.664,45.3404],[-122.6624,45.3409],[-122.6586,45.34],[-122.6548,45.3394],[-122.6544,45.3397]]]}},{"type":"Feature","properties":{"layer":"water","name":"Willamette Riv"},"geometry":{"type":"Polygon","coordinates":[[[-122.9,45.2569],[-122.8986,45.2558],[-122.8953,45.2563],[-122.894,45.2569],[-122.8913,45.2571],[-122.8885,45.2565],[-122.885,45.2551],[-122.8793,45.2534],[-122.8733,45.2532],[-122.8663,45.2519],[-122.8618,45.2525],[-122.8581,45.2538],[-122.8531,45.2569],[-122.8462,45.2607],[-122.8447,45.2618],[-122.842,45.2649],[-122.8369,45.2691],[-122.8335,45.2741],[-122.8346,45.2741],[-122.8379,45.2696],[-122.8423,45.2657],[-122.8467,45.2614],[-122.8499,45.2597],[-122.8547,45.2573],[-122.8588,45.2547],[-122.8625,45.2533],[-122.8672,45.253],[-122.8729,45.2538],[-122.8791,45.2544],[-122.8819,45.255],[-122.8871,45.2567],[-122.8897,45.2578],[-122.8932,45.2581],[-122.8973,45.2567],[-122.9,45.2569]]]}},{"type":"Feature","properties":{"layer":"water"},"geometry":{"type":"MultiPolygon","coordinates":[[[[-122.3305,45.5],[-122.3296,45.4993],[-122.3252,45.4984],[-122.3218,45.4969],[-122.3202,45.4979],[-122.3174,45.4981],[-122.3167,45.4986],[-122.3228,45.4989],[-122.3248,45.4986],[-122.3305,45.5]],[[-122.3236,45.4982],[-122.3221,45.4987],[-122.3204,45.4981],[-122.3219,45.497],[-122.3236,45.4982]]],[[[-122.2988,45.5],[-122.3008,45.4986],[-122.3043,45.4971],[-122.3072,45.4937],[-122.3076,45.4918],[-122.301,45.49],[-122.3005,45.4896],[-122.2984,45.4898],[-122.2967,45.491],[-122.2941,45.4959],[-122.2915,45.4988],[-122.2959,45.4962],[-122.2969,45.4948],[-122.2974,45.4919],[-122.2997,45.4898],[-122.3017,45.4911],[-122.3071,45.4919],[-122.3068,45.4933],[-122.3041,45.496],[-122.3008,45.498],[-122.2988,45.5]]],[[[-122.28,45.4941],[-122.281,45.4942],[-122.2827,45.4908],[-122.2888,45.4888],[-122.2912,45.4867],[-122.2894,45.4852],[-122.2875,45.4809],[-122.2892,45.479],[-122.2903,45.4741],[-122.2903,45.4728],[-122.2888,45.4693],[-122.2856,45.4681],[-122.28,45.4679],[-122.28,45.4684],[-122.2842,45.4692],[-122.2873,45.4706],[-122.2896,45.4732],[-122.2892,45.4769],[-122.2886,45.4786],[-122.2874,45.4793],[-122.2872,45.4822],[-122.2879,45.4843],[-122.2907,45.4869],[-122.288,45.4887],[-122.2828,45.4899],[-122.2808,45.4921],[-122.28,45.4941]],[[-122.2894,45.4716],[-122.2839,45.4689],[-122.2861,45.4686],[-122.2889,45.4695],[-122.2894,45.4716]]]]}},{"type":"Feature","properties":{"layer":"water"},"geometry":{"type":"Polygon","coordinates":[[[-122.5797,45.4632],[-122.5791,45.4633],[-122.5769,45.4652],[-122.5745,45.4657],[-122.5671,45.4685],[-122.5655,45.4685],[-122.5646,45.4687],[-122.5641,45.4709],[-122.5621,45.4734],[-122.5597,45.4741],[-122.5585,45.4753],[-122.5564,45.4752],[-122.556,45.4752],[-122.555,45.4757],[-122.5536,45.4757],[-122.551,45.4752],[-122.5509,45.4746],[-122.5516,45.474],[-122.5514,45.4737],[-122.551,45.4737],[-122.5479,45.474],[-122.5447,45.4755],[-122.5423,45.4754],[-122.5404,45.4749],[-122.5415,45.4735],[-122.539,45.4742],[-122.5363,45.4739],[-122.5338,45.4732],[-122.5303,45.473],[-122.5288,45.4718],[-122.5275,45.4713],[-122.5269,45.4712],[-122.5263,45.4714],[-122.5254,45.4715],[-122.5234,45.4721],[-122.5229,45.4728],[-122.5187,45.4728],[-122.5181,45.4731],[-122.5179,45.4742],[-122.5162,45.4742],[-122.5159,45.475],[-122.5153,45.4758],[-122.5144,45.4765],[-122.5133,45.4771],[-122.5122,45.4782],[-122.511,45.4776],[-122.5091,45.4779],[-122.5069,45.4772],[-122.5029,45.4769],[-122.502,45.4771],[-122.5012,45.4776],[-122.5003,45.4772],[-122.4998,45.4773],[-122.4972,45.4785],[-122.4959,45.4786],[-122.4945,45.4783],[-122.4939,45.4784],[-122.4931,45.4793],[-122.4931,45.4812],[-122.4912,45.4818],[-122.4916,45.4832],[-122.4895,45.4848],[-122.4879,45.4855],[-122.488,45.4861],[-122.486,45.4868],[-122.4846,45.4866],[-122.4843,45.4863],[-122.4839,45.4862],[-122.4825,45.4866],[-122.4817,45.4866],[-122.4809,45.4863],[-122.4801,45.4866],[-122.4785,45.4866],[-122.4753,45.4871],[-122.4709,45.4867],[-122.4697,45.4869],[-122.4666,45.4885],[-122.4658,45.4885],[-122.4651,45.488],[-122.4642,45.4878],[-122.4622,45.488],[-122.4614,45.4867],[-122.4598,45.4864],[-122.4597,45.4871],[-122.4581,45.4875],[-122.456,45.4873],[-122.4554,45.4874],[-122.4556,45.4877],[-122.4549,45.4878],[-122.4538,45.4884],[-122.4514,45.4878],[-122.4504,45.489],[-122.4457,45.4907],[-122.4438,45.4922],[-122.443,45.4926],[-122.4426,45.493],[-122.4426,45.4938],[-122.442,45.4935],[-122.4412,45.4938],[-122.4406,45.4938],[-122.4402,45.4941],[-122.4406,45.4944],[-122.4399,45.4951],[-122.4384,45.4954],[-122.4351,45.4952],[-122.4341,45.4954],[-122.4335,45.4958],[-122.433,45.4966],[-122.431,45.4959],[-122.4293,45.4954],[-122.4287,45.4924],[-122.4283,45.4919],[-122.4279,45.4916],[-122.428,45.4913],[-122.4279,45.4909],[-122.4276,45.4907],[-122.4263,45.4898],[-122.4248,45.4891],[-122.4242,45.4878],[-122.4237,45.4875],[-122.4229,45.4876],[-122.4213,45.4862],[-122.4205,45.4848],[-122.4196,45.4839],[-122.4195,45.4836],[-122.4191,45.4837],[-122.4187,45.484],[-122.4181,45.4833],[-122.4171,45.4831],[-122.4168,45.4814],[-122.4159,45.4813],[-122.415,45.4813],[-122.414,45.4807],[-122.4142,45.4797],[-122.4138,45.4789],[-122.4131,45.4783],[-122.4122,45.4783],[-122.4118,45.4776],[-122.412,45.4783],[-122.4131,45.4784],[-122.4138,45.4789],[-122.4141,45.4801],[-122.4139,45.4807],[-122.4147,45.4811],[-122.4149,45.4814],[-122.4152,45.4814],[-122.4167,45.4814],[-122.4169,45.4831],[-122.4181,45.4834],[-122.4185,45.484],[-122.419,45.4841],[-122.4192,45.4837],[-122.4199,45.4842],[-122.4203,45.4847],[-122.4212,45.4863],[-122.4228,45.4876],[-122.4241,45.4878],[-122.4245,45.4889],[-122.4255,45.4897],[-122.4263,45.4899],[-122.4271,45.4906],[-122.4276,45.4908],[-122.4279,45.4911],[-122.4278,45.4917],[-122.4286,45.4924],[-122.4292,45.4954],[-122.4326,45.4967],[-122.4331,45.4966],[-122.4338,45.4956],[-122.4355,45.4952],[-122.4384,45.4954],[-122.44,45.4951],[-122.4404,45.4949],[-122.4407,45.4944],[-122.4403,45.494],[-122.4407,45.4939],[-122.4417,45.4937],[-122.4426,45.4939],[-122.4427,45.4931],[-122.4431,45.4926],[-122.4442,45.4921],[-122.4455,45.4909],[-122.4503,45.4893],[-122.4512,45.4883],[-122.4536,45.4885],[-122.4547,45.488],[-122.4557,45.4877],[-122.4556,45.4874],[-122.4582,45.4876],[-122.4613,45.4867],[-122.4621,45.488],[-122.464,45.4882],[-122.4651,45.488],[-122.4658,45.4886],[-122.467,45.4885],[-122.4697,45.487],[-122.471,45.4867],[-122.4753,45.4871],[-122.4783,45.4866],[-122.4798,45.4868],[-122.4811,45.4864],[-122.4815,45.4867],[-122.4826,45.4866],[-122.484,45.4862],[-122.4846,45.4866],[-122.4865,45.4872],[-122.4881,45.4861],[-122.488,45.4855],[-122.4895,45.4848],[-122.4918,45.4832],[-122.4913,45.4818],[-122.493,45.4817],[-122.4932,45.4809],[-122.4932,45.4793],[-122.4944,45.4784],[-122.4962,45.4787],[-122.4969,45.4787],[-122.4979,45.4783],[-122.5001,45.4773],[-122.5013,45.4776],[-122.5026,45.477],[-122.5048,45.4772],[-122.5059,45.4778],[-122.5069,45.4773],[-122.5092,45.4779],[-122.511,45.4776],[-122.5123,45.4783],[-122.5147,45.4764],[-122.5154,45.4758],[-122.5159,45.4751],[-122.5165,45.4742],[-122.5177,45.4743],[-122.518,45.4742],[-122.5189,45.4728],[-122.5232,45.4728],[-122.5236,45.4721],[-122.5255,45.4715],[-122.5262,45.4715],[-122.5271,45.4713],[-122.5277,45.4714],[-122.5288,45.4719],[-122.5299,45.473],[-122.5314,45.4734],[-122.5338,45.4733],[-122.5363,45.474],[-122.5391,45.4742],[-122.5405,45.475],[-122.5421,45.4754],[-122.5448,45.4756],[-122.5479,45.4751],[-122.5479,45.4741],[-122.5497,45.474],[-122.5514,45.4737],[-122.5509,45.4746],[-122.5507,45.4752],[-122.5539,45.4758],[-122.5552,45.4757],[-122.556,45.4753],[-122.5573,45.4755],[-122.5588,45.4753],[-122.5599,45.4741],[-122.5622,45.4734],[-122.5643,45.4708],[-122.5647,45.4689],[-122.5672,45.4687],[-122.5715,45.467],[-122.5725,45.4672],[-122.5739,45.466],[-122.5771,45.4652],[-122.5797,45.4632]]]}},{"type":"Feature","properties":{"layer":"water","name":"Willamette Riv"},"geometry":{"type":"Polygon","coordinates":[[[-122.6611,45.5],[-122.6674,45.5],[-122.6676,45.4968],[-122.6688,45.4932],[-122.67,45.4919],[-122.6708,45.4898],[-122.6719,45.4885],[-122.6721,45.488],[-122.6722,45.4871],[-122.6721,45.4866],[-122.672,45.4839],[-122.6705,45.4782],[-122.6685,45.4749],[-122.6696,45.4721],[-122.6695,45.4704],[-122.6685,45.4667],[-122.6676,45.4646],[-122.668,45.4637],[-122.6673,45.4621],[-122.6635,45.4578],[-122.6613,45.4549],[-122.6592,45.4529],[-122.657,45.4481],[-122.6555,45.447],[-122.6533,45.4446],[-122.6517,45.4438],[-122.6485,45.4433],[-122.6476,45.4418],[-122.6498,45.4385],[-122.6522,45.4372],[-122.6519,45.4347],[-122.6506,45.4327],[-122.6489,45.4327],[-122.6512,45.4361],[-122.6505,45.4372],[-122.6472,45.4388],[-122.6463,45.4396],[-122.646,45.441],[-122.6477,45.444],[-122.6526,45.4457],[-122.6591,45.4543],[-122.661,45.4578],[-122.6594,45.4579],[-122.6608,45.4592],[-122.6629,45.4626],[-122.6625,45.4632],[-122.6639,45.4647],[-122.6647,45.4679],[-122.6649,45.4707],[-122.6636,45.4734],[-122.6638,45.4744],[-122.6606,45.4757],[-122.6568,45.4781],[-122.6551,45.4814],[-122.6531,45.4841],[-122.6529,45.4877],[-122.6541,45.4893],[-122.6567,45.4905],[-122.6588,45.492],[-122.6602,45.4963],[-122.6611,45.5]],[[-122.6678,45.488],[-122.6667,45.4917],[-122.6657,45.4935],[-122.665,45.4977],[-122.6635,45.4977],[-122.6627,45.4954],[-122.6615,45.493],[-122.6646,45.4916],[-122.6644,45.4887],[-122.6663,45.4867],[-122.6664,45.4846],[-122.6658,45.4836],[-122.6623,45.4802],[-122.6591,45.4821],[-122.6595,45.4836],[-122.659,45.4857],[-122.6592,45.4871],[-122.6578,45.49],[-122.6559,45.4891],[-122.6546,45.4871],[-122.655,45.4847],[-122.6572,45.4819],[-122.6607,45.4797],[-122.6613,45.4785],[-122.663,45.4778],[-122.663,45.4799],[-122.6644,45.4816],[-122.6659,45.4826],[-122.6672,45.4846],[-122.6678,45.488]]]}},{"type":"Feature","properties":{"layer":"water"},"geometry":{"type":"Polygon","coordinates":[[[-122.6607,45.4717],[-122.6582,45.4707],[-122.6544,45.4718],[-122.6529,45.4744],[-122.6551,45.4756],[-122.6569,45.4757],[-122.6584,45.4749],[-122.6607,45.4717]]]}},{"type":"Feature","properties":{"layer":"water","name":"Willamette Riv"},"geometry":{"type":"Polygon","coordinates":[[[-122.9,45.258],[-122.9,45.2569],[-122.8973,45.2567],[-122.8932,45.2581],[-122.8897,45.2578],[-122.8871,45.2567],[-122.8819,45.255],[-122.8791,45.2544],[-122.8729,45.2538],[-122.8672,45.253],[-122.8625,45.2533],[-122.8588,45.2547],[-122.8547,45.2573],[-122.8499,45.2597],[-122.8514,45.2597],[-122.8559,45.2575],[-122.8595,45.255],[-122.8627,45.254],[-122.868,45.2538],[-122.8756,45.2551],[-122.8794,45.2556],[-122.8842,45.2567],[-122.8884,45.2583],[-122.8912,45.259],[-122.8931,45.259],[-122.8971,45.2574],[-122.9,45.258]]]}},{"type":"Feature","properties":{"layer":"water","name":"Tualatin Riv"},"geometry":{"type":"MultiLineString","coordinates":[[[-122.7437,45.3859],[-122.7381,45.3844],[-122.7353,45.3836],[-122.7286,45.3831]],[[-122.7285,45.3834],[-122.7349,45.3839],[-122.7439,45.3861],[-122.7505,45.3876],[-122.7544,45.3857],[-122.7602,45.386],[-122.7622,45.3871],[-122.7643,45.3932],[-122.7666,45.3928],[-122.7699,45.3951],[-122.7721,45.3935],[-122.774,45.3933],[-122.7746,45.3963],[-122.776,45.3976],[-122.7789,45.3985],[-122.7824,45.3987],[-122.7912,45.3974],[-122.7949,45.3956],[-122.8004,45.3937],[-122.8045,45.3929],[-122.8062,45.3901],[-122.8088,45.3894],[-122.8151,45.3897],[-122.8192,45.3927],[-122.8225,45.396],[-122.8245,45.3955],[-122.8296,45.3961],[-122.8354,45.396],[-122.8359,45.3924],[-122.8303,45.39],[-122.829,45.388],[-122.8322,45.3863],[-122.835,45.3883],[-122.8373,45.3887],[-122.8418,45.3892],[-122.8484,45.3888],[-122.8571,45.3878],[-122.86,45.3882],[-122.8626,45.3859],[-122.8653,45.3857],[-122.867,45.3866],[-122.867,45.3898],[-122.8657,45.3908],[-122.8616,45.3898],[-122.8587,45.3914],[-122.8603,45.3944],[-122.8639,45.3936],[-122.8669,45.3941],[-122.8671,45.3961],[-122.8639,45.3952],[-122.8623,45.3972],[-122.8588,45.3987],[-122.8637,45.4017],[-122.8659,45.4035],[-122.8651,45.4066],[-122.8666,45.408],[-122.8748,45.4067],[-122.8761,45.406],[-122.8831,45.3998],[-122.8901,45.3962],[-122.8926,45.3964],[-122.8924,45.3986],[-122.9,45.3981]],[[-122.9,45.402],[-122.8937,45.4012],[-122.8925,45.4025],[-122.8955,45.4057],[-122.8954,45.4074],[-122.8972,45.409],[-122.9,45.4096]],[[-122.9,45.3968],[-122.8953,45.397],[-122.8941,45.3955],[-122.8977,45.3953],[-122.9,45.394]]]}},{"type":"Feature","properties":{"layer":"water","name":"Pudding Riv"},"geometry":{"type":"LineString","coordinates":[[-122.7471,45.2493],[-122.7501,45.2473],[-122.7511,45.2453],[-122.75,45.2434],[-122.7517,45.2423],[-122.7477,45.2359],[-122.7493,45.2361],[-122.7501,45.2336],[-122.7499,45.232],[-122.7478,45.2335],[-122.7452,45.2324],[-122.7456,45.2301],[-122.7481,45.2312],[-122.7519,45.2302],[-122.7498,45.229],[-122.7488,45.2271],[-122.7467,45.2252],[-122.7481,45.2207],[-122.7472,45.2179],[-122.7454,45.2164],[-122.7486,45.2142],[-122.7474,45.2123],[-122.7483,45.211],[-122.7513,45.2116],[-122.7525,45.2098],[-122.7546,45.209],[-122.7569,45.2059],[-122.7591,45.2045],[-122.7594,45.2025],[-122.7536,45.2018],[-122.7527,45.2],[-122.7505,45.1992],[-122.7498,45.1952],[-122.7544,45.1967],[-122.7549,45.1959],[-122.7518,45.1937],[-122.7532,45.1918],[-122.7565,45.1931],[-122.7555,45.1954],[-122.7575,45.1957],[-122.7602,45.1942],[-122.7604,45.1914],[-122.7591,45.1898],[-122.7551,45.1916],[-122.7536,45.1903],[-122.7532,45.1875],[-122.7549,45.1847],[-122.7585,45.1842],[-122.7566,45.1824],[-122.7527,45.1827],[-122.7528,45.1806],[-122.757,45.1795],[-122.7592,45.1751],[-122.7566,45.1747],[-122.7569,45.1728],[-122.7599,45.1709],[-122.7605,45.1696],[-122.7633,45.1679],[-122.7666,45.1633],[-122.7697,45.1617],[-122.7737,45.1635],[-122.7733,45.161],[-122.7795,45.1597],[-122.7798,45.1574],[-122.7821,45.1583],[-122.7849,45.1556],[-122.7879,45.1546],[-122.792,45.151],[-122.7946,45.1496],[-122.7962,45.1507],[-122.8028,45.1508],[-122.8046,45.1503],[-122.8036,45.1469],[-122.8041,45.1456],[-122.8075,45.1446],[-122.808,45.143],[-122.8106,45.1423],[-122.8109,45.1396],[-122.8133,45.1386],[-122.8134,45.1362],[-122.8167,45.1369],[-122.8159,45.136],[-122.8183,45.1341],[-122.8163,45.1326],[-122.819,45.1312],[-122.8191,45.1292],[-122.816,45.128],[-122.8165,45.1263],[-122.8193,45.1269],[-122.8211,45.1255],[-122.8203,45.1239],[-122.8235,45.1201],[-122.8194,45.1172],[-122.8197,45.1139],[-122.8216,45.1107],[-122.8247,45.1096],[-122.8249,45.1056],[-122.8266,45.1043],[-122.829,45.1056],[-122.8287,45.1073],[-122.8309,45.1088],[-122.8345,45.1066],[-122.8377,45.1065],[-122.8381,45.1047],[-122.8355,45.1035],[-122.8346,45.1011],[-122.8323,45.102],[-122.831,45.1]]}},{"type":"Feature","properties":{"layer":"water","name":"Molalla Riv"},"geometry":{"type":"MultiLineString","coordinates":[[[-122.5189,45.1],[-122.5245,45.1018],[-122.528,45.1045],[-122.5304,45.105],[-122.5349,45.1084],[-122.5367,45.1088],[-122.5366,45.1125],[-122.5399,45.115],[-122.5393,45.1175],[-122.5355,45.1188],[-122.5355,45.1212],[-122.5395,45.1252],[-122.5399,45.1271],[-122.5384,45.1291],[-122.5346,45.1313],[-122.5351,45.1332],[-122.5346,45.1369],[-122.5342,45.14],[-122.537,45.1411],[-122.5374,45.1458],[-122.5401,45.1481],[-122.5405,45.1499],[-122.5377,45.1538],[-122.5339,45.1564],[-122.5337,45.1594],[-122.535,45.1616],[-122.5344,45.166],[-122.5352,45.1678],[-122.538,45.1687],[-122.5425,45.1688],[-122.5428,45.1691],[-122.545,45.1707],[-122.5462,45.1737],[-122.5496,45.174],[-122.5517,45.1759],[-122.552,45.1789],[-122.5559,45.1804],[-122.5555,45.1827],[-122.5566,45.1843],[-122.5599,45.1864],[-122.5605,45.1887],[-122.5626,45.1892],[-122.5677,45.1884],[-122.5696,45.1891],[-122.5703,45.1915],[-122.5739,45.1921],[-122.5786,45.1942],[-122.5754,45.1973],[-122.5777,45.2004],[-122.5807,45.1999],[-122.5838,45.2003],[-122.5861,45.2021],[-122.5842,45.2055],[-122.5843,45.2088],[-122.589,45.2109],[-122.5956,45.2105],[-122.5965,45.213],[-122.6041,45.217],[-122.6045,45.2196],[-122.6075,45.2206],[-122.6176,45.223],[-122.6192,45.2254],[-122.6225,45.2268],[-122.6277,45.2255],[-122.6308,45.2264],[-122.6339,45.2283],[-122.6378,45.2265],[-122.6402,45.2278],[-122.6405,45.2303],[-122.6435,45.2325],[-122.6483,45.2322],[-122.652,45.2338],[-122.6556,45.2332],[-122.6577,45.2337],[-122.6579,45.237],[-122.6638,45.2398],[-122.6678,45.241],[-122.6725,45.2421],[-122.6736,45.2442],[-122.6762,45.2455],[-122.6876,45.2442],[-122.6939,45.2442],[-122.7003,45.2423],[-122.7019,45.2422],[-122.7047,45.2407],[-122.7086,45.2403],[-122.7087,45.2445],[-122.7079,45.2471],[-122.705,45.2476],[-122.7044,45.2492]],[[-122.7182,45.288],[-122.7204,45.2897],[-122.7217,45.2882]]]}},{"type":"Feature","properties":{"layer":"water","name":"Sandy Riv"},"geometry":{"type":"MultiLineString","coordinates":[[[-122.3225,45.4972],[-122.3242,45.4983],[-122.32,45.4984],[-122.3172,45.4983],[-122.3133,45.5]],[[-122.28,45.4975],[-122.2906,45.4984],[-122.2932,45.4976],[-122.2961,45.492],[-122.2987,45.49],[-122.3073,45.4917],[-122.307,45.4937],[-122.304,45.4968],[-122.2991,45.5]],[[-122.2895,45.4721],[-122.2898,45.4741],[-122.2886,45.4797],[-122.2874,45.4808],[-122.289,45.4849],[-122.2909,45.4868],[-122.2883,45.4888],[-122.2831,45.4903],[-122.28,45.4944]],[[-122.331,45.5],[-122.3242,45.4983]],[[-122.2836,45.4685],[-122.28,45.4681]]]}}]}